{"type": "FeatureCollection", "attribution": "OpenStreetMap contributors, ODbL 1.0", "features": [{"type": "Feature", "properties": {"id": "osm-27867001-0-view-0", "osmWay": 27867001, "name": "菁山路101巷", "kind": "tertiary", "width": 2.56, "widthSource": "estimated by road class", "displayRole": "landmark-access"}, "geometry": {"type": "LineString", "coordinates": [[121.55730819865961, 25.143841000440172], [121.5570141995619, 25.14354490023356], [121.55689220023166, 25.143411200651276], [121.55679269861736, 25.14332819950593], [121.55673009883901, 25.143237700269495], [121.55666520122365, 25.143167898683974], [121.55664169878544, 25.142984699348723], [121.55661430149799, 25.14281430094772], [121.55649490080124, 25.14266139996407], [121.55642489894873, 25.14251599987873], [121.5564118995793, 25.142470200044915], [121.55638449919086, 25.14228259898491]]}}, {"type": "Feature", "properties": {"id": "osm-295177316-0-view-0", "osmWay": 295177316, "name": "釋迦大道", "kind": "service", "width": 1.28, "widthSource": "estimated by road class", "displayRole": "landmark-access"}, "geometry": {"type": "LineString", "coordinates": [[121.53977910095035, 25.137180300992632], [121.53980210102743, 25.137122800655767], [121.53986529929774, 25.136965099321774], [121.53998220059285, 25.136702000821955]]}}, {"type": "Feature", "properties": {"id": "osm-28492749-0-view-2", "osmWay": 28492749, "name": "竹子湖路", "kind": "primary", "width": 3.84, "widthSource": "estimated by road class", "displayRole": "landmark-access"}, "geometry": {"type": "LineString", "coordinates": [[121.54510460025904, 25.152224700022458], [121.54494750077072, 25.15226359970356], [121.5447227003679, 25.152290200943227], [121.54441449871483, 25.152322801217213], [121.5439831007476, 25.152367500619835], [121.5437976984814, 25.15243299873338], [121.54369829919992, 25.15251569950593], [121.54365000120875, 25.152607899919154], [121.54364770027074, 25.15272439964966], [121.5437337993863, 25.15283840095221], [121.54391400128453, 25.152891600624326], [121.5442657005891, 25.152851401199246], [121.54444380001297, 25.152834400660257], [121.54479519852106, 25.152865198697448], [121.54567500031001, 25.153122000597378], [121.54667789918132, 25.153610698719906], [121.54691540125809, 25.1537451001078], [121.54712170112703, 25.15393630002695], [121.54727720050212, 25.154003799690084]]}}, {"type": "Feature", "properties": {"id": "osm-28492749-0-view-31", "osmWay": 28492749, "name": "竹子湖路", "kind": "primary", "width": 3.84, "widthSource": "estimated by road class", "displayRole": "landmark-access"}, "geometry": {"type": "LineString", "coordinates": [[121.54655799922442, 25.154844200673733], [121.54646629971258, 25.15489379867948], [121.54639350076293, 25.154980600803988], [121.54617840027127, 25.15519160006288]]}}, {"type": "Feature", "properties": {"id": "osm-295177317-0-view-0", "osmWay": 295177317, "name": "釋迦大道", "kind": "service", "width": 1.28, "widthSource": "estimated by road class", "displayRole": "landmark-access"}, "geometry": {"type": "LineString", "coordinates": [[121.53977910095035, 25.137180300992632], [121.53966229888708, 25.137489000013474]]}}, {"type": "Feature", "properties": {"id": "osm-263044480-0-view-0", "osmWay": 263044480, "name": "紗帽路", "kind": "tertiary", "width": 2.56, "widthSource": "estimated by road class", "displayRole": "main"}, "geometry": {"type": "LineString", "coordinates": [[121.53382190112909, 25.148795599231946], [121.53381300127454, 25.148699901019583], [121.53378760102763, 25.148562299398133], [121.5335479995775, 25.148213299892202], [121.53346950099974, 25.148099001024075], [121.5332306003744, 25.147728599254403], [121.53312209967372, 25.147640699505928], [121.53290280043535, 25.147536099591267], [121.53284310008696, 25.147490499070248], [121.5326715003478, 25.14723300097916], [121.53242939949601, 25.147018501113905], [121.5322852001453, 25.146524898773805], [121.53226380018144, 25.146481998800756], [121.53207059891378, 25.146374701145348], [121.531963301399, 25.146288901199245], [121.53194190143515, 25.146224500709668], [121.5318346008194, 25.145902599321776], [121.53179169855885, 25.145795298859145], [121.53177389884975, 25.14577750106899], [121.53174879939931, 25.145752398886096], [121.53165559900607, 25.145688899514912], [121.53151269897211, 25.145623698966943], [121.53143829990924, 25.145586399402625], [121.53138400149348, 25.145494900795004], [121.53129820007341, 25.145194499923644], [121.53128680081718, 25.145062201145347], [121.5312773986015, 25.144792898683974], [121.53131020092258, 25.14461839893101], [121.53149129900825, 25.144271900660257], [121.53153209879443, 25.14409130081297], [121.53153960010042, 25.14389149956432], [121.53151400138984, 25.14376699924991]]}}, {"type": "Feature", "properties": {"id": "osm-380665339-0-view-0", "osmWay": 380665339, "name": "", "kind": "residential", "width": 1.6, "widthSource": "estimated by road class", "displayRole": "landmark-access"}, "geometry": {"type": "LineString", "coordinates": [[121.54811840111007, 25.150181800049406], [121.54829619973748, 25.150258100354833], [121.54835519926107, 25.150280799555336]]}}, {"type": "Feature", "properties": {"id": "osm-295177368-0-view-0", "osmWay": 295177368, "name": "孔子大道", "kind": "service", "width": 1.28, "widthSource": "estimated by road class", "displayRole": "landmark-access"}, "geometry": {"type": "LineString", "coordinates": [[121.5393032998412, 25.13574830034136], [121.53938190075176, 25.135642201369926], [121.53943390133051, 25.13554600066475], [121.53950489860227, 25.135410900278476], [121.53976359907826, 25.135021499227452], [121.53988839860665, 25.1347145013834]]}}, {"type": "Feature", "properties": {"id": "osm-135864351-0-view-0", "osmWay": 135864351, "name": "中興路", "kind": "unclassified", "width": 1.6, "widthSource": "estimated by road class", "displayRole": "main"}, "geometry": {"type": "LineString", "coordinates": [[121.5369418986418, 25.160442899806863], [121.53694019929675, 25.16050740135645], [121.536987300304, 25.16053949913762], [121.53707699967431, 25.16056750118128], [121.53720970053699, 25.160572599097197], [121.53748069955762, 25.160528399380166], [121.53767310076867, 25.16048250129357], [121.53794200041595, 25.160363500327882], [121.53818950009938, 25.160277200696193], [121.53841599984725, 25.1602139006378], [121.53864790152774, 25.160151299577795], [121.53870679871852, 25.160135301217213], [121.5388693993713, 25.16008650046263], [121.53902420102261, 25.16004440054797], [121.53932999940484, 25.160031099928137], [121.53943470138712, 25.160038600826446], [121.53948890057104, 25.160070998980416], [121.53950170147682, 25.160123600714158], [121.53944999859357, 25.16018409916457], [121.5389451008519, 25.1602528003189], [121.5388156994475, 25.160288300453647], [121.53848650095988, 25.1604938986166], [121.53826379993042, 25.16059400136094], [121.53791450079568, 25.16076710030992], [121.53741830134392, 25.161030198809737], [121.53712860022475, 25.161158199730508], [121.53710889960594, 25.16122939931279], [121.53710840034582, 25.161231198742364], [121.53714870087187, 25.161274199775423], [121.53722180061798, 25.161276799263383], [121.5373538998877, 25.161244600422208], [121.53872249905427, 25.160729898998383], [121.53887410047913, 25.160663101140855], [121.53900819989039, 25.16063240135645], [121.53913019922064, 25.16064409905228], [121.53937150001582, 25.16068489922296], [121.53956200031718, 25.160705201055517], [121.53991880075787, 25.160677300071864], [121.54012929937352, 25.16068389985178], [121.54024130109713, 25.16070109970356], [121.54071810072656, 25.160772798971433], [121.54078249908179, 25.160794299487964], [121.54082599983428, 25.160838400952212], [121.54082399969275, 25.160890999878728], [121.5407904996479, 25.16094809878279], [121.54076000136584, 25.160968400615342], [121.54062760129963, 25.16097580045365], [121.54039080004765, 25.160905198809736], [121.54024599910397, 25.160880099434063], [121.54015490118509, 25.160864901131873], [121.5400266998656, 25.160867399559827], [121.5394085010836, 25.16096370132501], [121.53905909961604, 25.16098939863906], [121.53897999944533, 25.161030299869743], [121.53893710028579, 25.161073199842797], [121.53893710028579, 25.161116099815846], [121.53895850024965, 25.161158999788896], [121.5390223001129, 25.16118619896694], [121.53926629877341, 25.161206200426697], [121.54011729852435, 25.161158999788896], [121.54020309994443, 25.161180500305427], [121.54026750140065, 25.161223400278477], [121.54033180052404, 25.161266300251526], [121.54041770117595, 25.161395101230685], [121.54041970131749, 25.16144220080848], [121.5404223991828, 25.161501598827705], [121.5404243000925, 25.161542300745598], [121.54040360095343, 25.161590700067375], [121.54037479891542, 25.161631098805245], [121.54035329971974, 25.161673998778298], [121.54032349916146, 25.16191269970805], [121.54031040056019, 25.16201729962271]]}}, {"type": "Feature", "properties": {"id": "osm-30688294-0-view-0", "osmWay": 30688294, "name": "紗帽路", "kind": "residential", "width": 1.6, "widthSource": "estimated by road class", "displayRole": "main"}, "geometry": {"type": "LineString", "coordinates": [[121.54839460049868, 25.14913100055246], [121.5482997007604, 25.14931240045814], [121.54816429893141, 25.149614800071866], [121.54806489964994, 25.149804500934245], [121.54801039966954, 25.149919799173553], [121.54790650084486, 25.150087800206613], [121.54781869928325, 25.150237700269493], [121.54775079990512, 25.150328101253145], [121.54758449976575, 25.150494600422206], [121.54755599852422, 25.15051699924991], [121.54726799985109, 25.15071120008983], [121.54700380131166, 25.15088530121721], [121.546711498458, 25.151066198630076], [121.54651839952315, 25.151153598692957], [121.54649669876282, 25.15116559956881], [121.546409601127, 25.151213900637803], [121.54627770032093, 25.151287000709665], [121.54624279862651, 25.151322899469996]]}}, {"type": "Feature", "properties": {"id": "osm-445263445-0-view-0", "osmWay": 445263445, "name": "紗帽路", "kind": "tertiary", "width": 2.56, "widthSource": "estimated by road class", "displayRole": "main"}, "geometry": {"type": "LineString", "coordinates": [[121.5330966994268, 25.151995599793388], [121.53311119967763, 25.15193729939813], [121.53312230123836, 25.151844899672117], [121.53314319884109, 25.151614800071865], [121.53313360126275, 25.15126299895796], [121.53320990123532, 25.1507920003728], [121.53316499883326, 25.150666200314408], [121.53307910128234, 25.150322899469998], [121.53306959983483, 25.1499472987244], [121.53292890150705, 25.149571900098813], [121.53287890106982, 25.149407700044915], [121.53284310008696, 25.14886380070068], [121.53284310008696, 25.148799400211104], [121.53284910051156, 25.148777599321775], [121.53291669909322, 25.148750099770933], [121.53313650069272, 25.148729200000002], [121.5332866012362, 25.148765000507545], [121.53348739994067, 25.148826400076356], [121.53363700122401, 25.1488691989894], [121.53371549980177, 25.14885179982483], [121.53382190112909, 25.148795599231946]]}}, {"type": "Feature", "properties": {"id": "osm-135871748-0-view-10", "osmWay": 135871748, "name": "和平路", "kind": "residential", "width": 1.6, "widthSource": "estimated by road class", "displayRole": "landmark-access"}, "geometry": {"type": "LineString", "coordinates": [[121.54708460082742, 25.139144500485088], [121.54679510127289, 25.139079100624325], [121.5465428012498, 25.13902209997305], [121.54643830083218, 25.13898270060636]]}}, {"type": "Feature", "properties": {"id": "osm-34921733-0-view-0", "osmWay": 34921733, "name": "", "kind": "tertiary", "width": 2.56, "widthSource": "estimated by road class", "displayRole": "landmark-access"}, "geometry": {"type": "LineString", "coordinates": [[121.54839460049868, 25.14913100055246], [121.54845419851425, 25.149126899200503], [121.54849849932336, 25.149129900121274], [121.54930379971661, 25.14908620008983], [121.54940860093072, 25.149080201055515]]}}, {"type": "Feature", "properties": {"id": "osm-445263446-0-view-0", "osmWay": 445263446, "name": "紗帽路", "kind": "tertiary", "width": 2.56, "widthSource": "estimated by road class", "displayRole": "main"}, "geometry": {"type": "LineString", "coordinates": [[121.53151400138984, 25.14376699924991], [121.53153559981736, 25.14363420078602], [121.53161999958786, 25.14352080022907], [121.53188159949381, 25.143356499115164], [121.53204220000507, 25.143254799061264], [121.53229909880318, 25.14314670134747], [121.53239170070445, 25.143087901266618], [121.53255409979258, 25.142880200494073], [121.53266929864162, 25.142798299779916], [121.53274050057904, 25.14276249927237], [121.53284710037002, 25.142736599838305], [121.5330517008939, 25.142696299353215], [121.53348619985576, 25.142574300273985], [121.53361219946906, 25.142553400503054], [121.53379459997248, 25.14256880092526], [121.53407959998381, 25.14262570051653], [121.53430689978829, 25.142636199528386], [121.53446260072805, 25.1426038996272], [121.53462749921783, 25.14257819950593], [121.53479579949872, 25.142662500395257], [121.535088899308, 25.142918199056773], [121.53528930108517, 25.143027298948976], [121.53568220020422, 25.143205700741106], [121.53575059884251, 25.14323330135196], [121.53613750063798, 25.143358699977544], [121.53620559847978, 25.143392100309917], [121.53624570054217, 25.143431800049406], [121.53628229848066, 25.143490600130256], [121.53632240054304, 25.14376920011229], [121.53637189861914, 25.143904600871362], [121.53642970115881, 25.143990299757455], [121.53651389936466, 25.14406910129806], [121.53662619878375, 25.144125299083722], [121.5368125003384, 25.144183501226195], [121.53701600000919, 25.14422599976644], [121.53722199908164, 25.14421660118577], [121.53740519964167, 25.14417610138789], [121.53747099964646, 25.144134299038807], [121.53754880050042, 25.144088799577794], [121.53762820146761, 25.144035799218468], [121.53771239967347, 25.14400500118128], [121.5377882003859, 25.14401349864355], [121.53792389991037, 25.144043100803987], [121.53805389980674, 25.144033199730508], [121.53817949939173, 25.143998901086956], [121.53829779923541, 25.14394190043568]]}}, {"type": "Feature", "properties": {"id": "osm-465991469-0-view-0", "osmWay": 465991469, "name": "", "kind": "steps", "width": 0.48, "widthSource": "estimated by road class", "displayRole": "landmark-access"}, "geometry": {"type": "LineString", "coordinates": [[121.54655799922442, 25.154844200673733], [121.54660889895007, 25.154785201280095], [121.54674070052431, 25.15478899945203], [121.5468080014105, 25.154781099928137], [121.54684309846758, 25.154781899986524], [121.54691979846845, 25.15477430083543], [121.54696539859431, 25.154759700471615], [121.54700609914866, 25.15474430004941], [121.54704679970303, 25.154680399245418], [121.54720400152418, 25.154557400795007], [121.54724160108391, 25.154492200247034], [121.54730229995256, 25.15431480063331], [121.5473244007412, 25.15426379901635], [121.54734119882905, 25.1541906006917]]}}, {"type": "Feature", "properties": {"id": "osm-445263342-0-view-0", "osmWay": 445263342, "name": "紗帽路", "kind": "unclassified", "width": 1.6, "widthSource": "estimated by road class", "displayRole": "main"}, "geometry": {"type": "LineString", "coordinates": [[121.53173942199159, 25.139999998710923], [121.53176600061646, 25.14003499916008], [121.53181979977208, 25.140080201055515], [121.53192660112771, 25.1401361012756], [121.53202390103583, 25.140156700673735], [121.53225640120829, 25.140142701055517], [121.53237520031209, 25.14011570119026], [121.53247680129974, 25.140144099052282]]}}, {"type": "Feature", "properties": {"id": "osm-135864329-0-view-0", "osmWay": 135864329, "name": "湖山路二段", "kind": "tertiary", "width": 2.56, "widthSource": "estimated by road class", "displayRole": "main"}, "geometry": {"type": "LineString", "coordinates": [[121.54045850096215, 25.156566198630077], [121.54048819918759, 25.156536399964068], [121.54052499869073, 25.156481299802373], [121.5405309991153, 25.15637440077255], [121.54052499869073, 25.156288101140856], [121.54047950089769, 25.156145000170678], [121.54046060033549, 25.156095000732122], [121.54035329971974, 25.15592340083992], [121.54022390141633, 25.155801398953468], [121.53960230084321, 25.155215298634566], [121.53948829897809, 25.155093700988143], [121.5393945000929, 25.154977700943228]]}}, {"type": "Feature", "properties": {"id": "osm-1091644849-0-view-0", "osmWay": 1091644849, "name": "", "kind": "service", "width": 1.28, "widthSource": "estimated by road class", "displayRole": "landmark-access"}, "geometry": {"type": "LineString", "coordinates": [[121.53897790007197, 25.154438599142114], [121.53892340009156, 25.154338998890587], [121.53886550142106, 25.15423590083992], [121.53873669850861, 25.154109699348723], [121.53859529935605, 25.15406480063331]]}}, {"type": "Feature", "properties": {"id": "osm-135864336-0-view-2", "osmWay": 135864336, "name": "新生街", "kind": "service", "width": 1.28, "widthSource": "estimated by road class", "displayRole": "landmark-access"}, "geometry": {"type": "LineString", "coordinates": [[121.53897790007197, 25.154438599142114], [121.53905109904993, 25.154414499137623]]}}, {"type": "Feature", "properties": {"id": "osm-135871656-0-view-0", "osmWay": 135871656, "name": "光華路", "kind": "residential", "width": 1.6, "widthSource": "estimated by road class", "displayRole": "main"}, "geometry": {"type": "LineString", "coordinates": [[121.54599780144574, 25.136903500440173], [121.5457911015485, 25.136849001024075], [121.54569140147055, 25.136955700741108], [121.54564030018024, 25.137009899784406], [121.54546860120925, 25.137300500642294], [121.54542079937723, 25.137367399559828], [121.54528990019243, 25.137550899267875], [121.54522610032916, 25.13764039913313], [121.54508640052163, 25.13787049873338], [121.54500890046414, 25.137978801374416], [121.54496690059304, 25.13798939863906], [121.54458469990541, 25.137905600242544], [121.54439600128194, 25.137842199124147]]}}, {"type": "Feature", "properties": {"id": "osm-135871658-0-view-0", "osmWay": 135871658, "name": "愛富二街厚生巷", "kind": "residential", "width": 1.6, "widthSource": "estimated by road class", "displayRole": "landmark-access"}, "geometry": {"type": "LineString", "coordinates": [[121.54576410118837, 25.139701200763565], [121.54601120084348, 25.138943699865255]]}}, {"type": "Feature", "properties": {"id": "osm-524406402-0-view-0", "osmWay": 524406402, "name": "", "kind": "footway", "width": 0.576, "widthSource": "estimated by road class", "displayRole": "landmark-access"}, "geometry": {"type": "LineString", "coordinates": [[121.54708460082742, 25.139144500485088], [121.54709760019685, 25.13901909905228], [121.54738090086313, 25.13903559990568]]}}, {"type": "Feature", "properties": {"id": "osm-135871659-0-view-0", "osmWay": 135871659, "name": "", "kind": "service", "width": 1.28, "widthSource": "estimated by road class", "displayRole": "landmark-access"}, "geometry": {"type": "LineString", "coordinates": [[121.54035810005941, 25.137586899088216], [121.5411074988227, 25.137840899380166]]}}, {"type": "Feature", "properties": {"id": "osm-480214817-0-view-7", "osmWay": 480214817, "name": "", "kind": "service", "width": 1.28, "widthSource": "estimated by road class", "displayRole": "landmark-access"}, "geometry": {"type": "LineString", "coordinates": [[121.5412187997215, 25.134449901019583], [121.54064470018396, 25.134736299465505], [121.54028269937527, 25.134904999496946]]}}, {"type": "Feature", "properties": {"id": "osm-135871672-0-view-0", "osmWay": 135871672, "name": "荀子大道(仇人坡)", "kind": "pedestrian", "width": 0.96, "widthSource": "estimated by road class", "displayRole": "landmark-access"}, "geometry": {"type": "LineString", "coordinates": [[121.54078939879481, 25.136589599636185], [121.5415489998304, 25.13688100055246]]}}, {"type": "Feature", "properties": {"id": "osm-135871676-0-view-0", "osmWay": 135871676, "name": "愛富一街", "kind": "living_street", "width": 1.28, "widthSource": "estimated by road class", "displayRole": "main"}, "geometry": {"type": "LineString", "coordinates": [[121.54551049874753, 25.13894129969008], [121.54597250043065, 25.1382288996272], [121.54654640150456, 25.13822569939364]]}}, {"type": "Feature", "properties": {"id": "osm-135871677-0-view-0", "osmWay": 135871677, "name": "愛富三街", "kind": "residential", "width": 1.6, "widthSource": "estimated by road class", "displayRole": "main"}, "geometry": {"type": "LineString", "coordinates": [[121.54636349864, 25.139633498980416], [121.54619189890084, 25.13969410129806], [121.545870899443, 25.139684099164572], [121.54576410118837, 25.139701200763565], [121.54567359866044, 25.139678100130254], [121.5455240004781, 25.13962600088933], [121.54414950011878, 25.139112399896696], [121.54408229846442, 25.139055000619834], [121.54407179849665, 25.13903019880974]]}}, {"type": "Feature", "properties": {"id": "osm-135871678-0-view-0", "osmWay": 135871678, "name": "長春街", "kind": "service", "width": 1.28, "widthSource": "estimated by road class", "displayRole": "main"}, "geometry": {"type": "LineString", "coordinates": [[121.54542079937723, 25.137367399559828], [121.54483879850538, 25.137178201190263], [121.54468510080815, 25.13712830000449], [121.5440928015332, 25.13692450127111], [121.54370540047759, 25.13679120031441], [121.54363470090131, 25.13678049918254], [121.54351169994979, 25.136801800386273], [121.54345790079417, 25.136836899088216], [121.5434140992452, 25.136885699842797], [121.5431863994124, 25.137363000642292], [121.54315699888244, 25.13742450127111]]}}, {"type": "Feature", "properties": {"id": "osm-135871679-0-view-0", "osmWay": 135871679, "name": "建業路11巷", "kind": "service", "width": 1.28, "widthSource": "estimated by road class", "displayRole": "landmark-access"}, "geometry": {"type": "LineString", "coordinates": [[121.54786300009236, 25.135372399222963], [121.54768120118192, 25.13547569939364], [121.54754400077604, 25.13572309990568]]}}, {"type": "Feature", "properties": {"id": "osm-1092096107-0-view-0", "osmWay": 1092096107, "name": "", "kind": "footway", "width": 0.576, "widthSource": "estimated by road class", "displayRole": "landmark-access"}, "geometry": {"type": "LineString", "coordinates": [[121.53851129961384, 25.153948199842795], [121.53817959862356, 25.154051999699067]]}}, {"type": "Feature", "properties": {"id": "osm-1370883497-0-view-0", "osmWay": 1370883497, "name": "湖山路二段", "kind": "tertiary", "width": 2.56, "widthSource": "estimated by road class", "displayRole": "main"}, "geometry": {"type": "LineString", "coordinates": [[121.54035329971974, 25.156609999721525], [121.54041770117595, 25.156588600265003], [121.54045850096215, 25.156566198630077]]}}, {"type": "Feature", "properties": {"id": "osm-1370883498-0-view-0", "osmWay": 1370883498, "name": "湖山路二段", "kind": "tertiary", "width": 2.56, "widthSource": "estimated by road class", "displayRole": "main"}, "geometry": {"type": "LineString", "coordinates": [[121.5396726003912, 25.156886699213977], [121.53974059900118, 25.156746500911787], [121.53979560134272, 25.156684598850163], [121.53988120119814, 25.156652899694574], [121.54005290016913, 25.156631500238053], [121.54013369968489, 25.156631500238053], [121.5402889013645, 25.156631500238053], [121.54035329971974, 25.156609999721525]]}}, {"type": "Feature", "properties": {"id": "osm-524342556-0-view-0", "osmWay": 524342556, "name": "建業路68巷", "kind": "service", "width": 1.28, "widthSource": "estimated by road class", "displayRole": "landmark-access"}, "geometry": {"type": "LineString", "coordinates": [[121.54974250052618, 25.13662540014373], [121.54993170151079, 25.13666860048958], [121.55004730038814, 25.136736900211105], [121.55014380023965, 25.13688740101958], [121.55041210139497, 25.13697969968559], [121.55075000127349, 25.137047699034316], [121.55083539956426, 25.13707339915559]]}}, {"type": "Feature", "properties": {"id": "osm-34921662-0-view-0", "osmWay": 34921662, "name": "泉源路", "kind": "tertiary", "width": 2.56, "widthSource": "estimated by road class", "displayRole": "main"}, "geometry": {"type": "LineString", "coordinates": [[121.52800000080398, 25.144842333870823], [121.52819039877252, 25.14489690066026], [121.52848720116937, 25.14498000005839], [121.52868830067032, 25.145075600017968], [121.52902359881436, 25.145301800386274], [121.52938839982119, 25.145409100848905], [121.52949570043695, 25.145494900795004], [121.52953859959649, 25.145602201257635], [121.5296161988858, 25.145944398863637], [121.52971029856748, 25.146095800790516], [121.52983899914709, 25.146224500709668], [121.52990340060332, 25.146267400682717], [121.53015739997146, 25.14637790137891], [121.53022529934961, 25.146417601118397], [121.53025870016263, 25.146470200044917], [121.53040209945674, 25.147022798971435], [121.53048279974067, 25.147361799151096], [121.53057630093038, 25.147680601365433], [121.53061689915192, 25.147783000417714], [121.53065590036123, 25.147887600332375], [121.53069130131578, 25.14798270060636], [121.53076309864416, 25.148161200651277], [121.5308556013136, 25.148270699169064], [121.53116940026196, 25.14860629980237], [121.5314483998487, 25.148799400211104], [121.53174879939931, 25.149014001136365], [121.5318130985227, 25.14907839881872], [121.53185610001508, 25.149164198764822], [121.53187749997893, 25.149228599254403], [121.53192039913847, 25.149550399582285], [121.53200629979038, 25.149722100534497], [121.53213500036999, 25.149872300970177], [121.53218330146215, 25.150008299667626], [121.53222889848702, 25.150197399784407], [121.53236169858152, 25.150410100220085], [121.53241270064, 25.15055939953737], [121.53242200052286, 25.150632199236437], [121.53241399995674, 25.150709201347468], [121.5324092988489, 25.15074639985178], [121.53239240152924, 25.150904199438557], [121.53239850118564, 25.15106450026051], [121.53239789959268, 25.15115010089382], [121.53241529927348, 25.151227400570427], [121.5324387986107, 25.151302499384656], [121.53268080023066, 25.15154029919601], [121.53272950135114, 25.15162209885016], [121.5327377003809, 25.15165599886813]]}}, {"type": "Feature", "properties": {"id": "osm-135871691-0-view-0", "osmWay": 135871691, "name": "凱旋路", "kind": "service", "width": 1.28, "widthSource": "estimated by road class", "displayRole": "main"}, "geometry": {"type": "LineString", "coordinates": [[121.54034159966704, 25.13612669988771], [121.54154829900561, 25.13641269970805], [121.54161630071658, 25.136428799128637], [121.54171089965838, 25.13645319950593], [121.54177770128445, 25.136460899717033]]}}, {"type": "Feature", "properties": {"id": "osm-524406403-0-view-0", "osmWay": 524406403, "name": "", "kind": "service", "width": 1.28, "widthSource": "estimated by road class", "displayRole": "landmark-access"}, "geometry": {"type": "LineString", "coordinates": [[121.54654059954362, 25.138515500193137], [121.54683270083262, 25.138534900907295], [121.54738119855861, 25.138550301329502]]}}, {"type": "Feature", "properties": {"id": "osm-1184467141-0-view-0", "osmWay": 1184467141, "name": "環七星山人車分道陽金公路段", "kind": "footway", "width": 0.576, "widthSource": "estimated by road class", "displayRole": "landmark-access"}, "geometry": {"type": "LineString", "coordinates": [[121.54650240149192, 25.155417300745597], [121.54649240078427, 25.155428100130255], [121.54646269945783, 25.155429099501436], [121.5464198002983, 25.15539999983381], [121.54640000044765, 25.155421199977543]]}}, {"type": "Feature", "properties": {"id": "osm-135871728-0-view-0", "osmWay": 135871728, "name": "國泰街", "kind": "residential", "width": 1.6, "widthSource": "estimated by road class", "displayRole": "main"}, "geometry": {"type": "LineString", "coordinates": [[121.54230700075276, 25.137509299038808], [121.542537900812, 25.136952500507547], [121.5436453001009, 25.135788101140857]]}}, {"type": "Feature", "properties": {"id": "osm-135864331-0-view-18", "osmWay": 135864331, "name": "", "kind": "service", "width": 1.28, "widthSource": "estimated by road class", "displayRole": "landmark-access"}, "geometry": {"type": "LineString", "coordinates": [[121.5391281990791, 25.159383900413225], [121.53925710122337, 25.159128198944483], [121.53927919891102, 25.15905920022458], [121.53928679944883, 25.159014801194754]]}}, {"type": "Feature", "properties": {"id": "osm-135871739-0-view-3", "osmWay": 135871739, "name": "", "kind": "service", "width": 1.28, "widthSource": "estimated by road class", "displayRole": "landmark-access"}, "geometry": {"type": "LineString", "coordinates": [[121.54590079923311, 25.13558680083543], [121.545858799362, 25.13534970002246], [121.54592230152979, 25.135302900817464], [121.54600929993379, 25.13527480052102]]}}, {"type": "Feature", "properties": {"id": "osm-465991479-0-view-9", "osmWay": 465991479, "name": "", "kind": "footway", "width": 0.576, "widthSource": "estimated by road class", "displayRole": "landmark-access"}, "geometry": {"type": "LineString", "coordinates": [[121.53932170114325, 25.159645800229068], [121.53932999940484, 25.159655499182538], [121.53943899936566, 25.15961789924542], [121.53946079935783, 25.159594501046534], [121.53946580126214, 25.159560601028566], [121.5396925987055, 25.159452301194754]]}}, {"type": "Feature", "properties": {"id": "osm-135871741-0-view-0", "osmWay": 135871741, "name": "老子大道", "kind": "service", "width": 1.28, "widthSource": "estimated by road class", "displayRole": "landmark-access"}, "geometry": {"type": "LineString", "coordinates": [[121.54040459947369, 25.13745369919152], [121.54035810005941, 25.137586899088216]]}}, {"type": "Feature", "properties": {"id": "osm-674242212-0-view-0", "osmWay": 674242212, "name": "菁山路72巷", "kind": "service", "width": 0.96, "widthSource": "OSM width", "displayRole": "landmark-access"}, "geometry": {"type": "LineString", "coordinates": [[121.55115199871075, 25.13927049985627], [121.55087730020354, 25.13918660039975], [121.55030390149076, 25.139131199865254], [121.54967380109142, 25.13916109959127]]}}, {"type": "Feature", "properties": {"id": "osm-379437082-0-view-0", "osmWay": 379437082, "name": "", "kind": "service", "width": 1.28, "widthSource": "estimated by road class", "displayRole": "landmark-access"}, "geometry": {"type": "LineString", "coordinates": [[121.53859529935605, 25.15406480063331], [121.53851129961384, 25.153948199842795]]}}, {"type": "Feature", "properties": {"id": "osm-379810738-0-view-0", "osmWay": 379810738, "name": "湖山路二段", "kind": "tertiary", "width": 2.56, "widthSource": "estimated by road class", "displayRole": "main"}, "geometry": {"type": "LineString", "coordinates": [[121.5393945000929, 25.154977700943228], [121.53931059958252, 25.154926300700684], [121.5392345011746, 25.154820299982035], [121.53921869850603, 25.15473910107348]]}}, {"type": "Feature", "properties": {"id": "osm-379810740-0-view-0", "osmWay": 379810740, "name": "湖山路二段", "kind": "tertiary", "width": 2.56, "widthSource": "estimated by road class", "displayRole": "main"}, "geometry": {"type": "LineString", "coordinates": [[121.53921869850603, 25.15473910107348], [121.53927749956597, 25.15476759999551], [121.53929649935999, 25.154792300745598], [121.53936930141063, 25.15488959907474], [121.5393945000929, 25.154977700943228]]}}, {"type": "Feature", "properties": {"id": "osm-379810741-0-view-0", "osmWay": 379810741, "name": "湖山路一段", "kind": "tertiary", "width": 2.56, "widthSource": "estimated by road class", "displayRole": "main"}, "geometry": {"type": "LineString", "coordinates": [[121.53921869850603, 25.15473910107348], [121.53910950008157, 25.15456019959576], [121.53908659923631, 25.154524898773804], [121.53906020046912, 25.154483598917537], [121.53905109904993, 25.154414499137623], [121.53903840047697, 25.153970699730507], [121.5390570994745, 25.153660400592887], [121.53905879881957, 25.153563001203736], [121.53908560071604, 25.1533063986166], [121.539149000551, 25.15313260066924], [121.53921009944796, 25.153016600624326], [121.53933030020133, 25.152837800206612], [121.53936789976106, 25.152782200359326], [121.539436499964, 25.15268089893101], [121.53958079854654, 25.152511600961194], [121.53975250061852, 25.152382901042042], [121.53997170062506, 25.1522680996811], [121.54018299929731, 25.152232599546352], [121.54103519913318, 25.151835501091448], [121.54114720085678, 25.151782001046534], [121.54138330128399, 25.151717698809737], [121.54180200067826, 25.151627800318902]]}}, {"type": "Feature", "properties": {"id": "osm-1092086411-0-view-0", "osmWay": 1092086411, "name": "", "kind": "steps", "width": 0.48, "widthSource": "estimated by road class", "displayRole": "landmark-access"}, "geometry": {"type": "LineString", "coordinates": [[121.5397073997528, 25.159479098939993], [121.53975759865368, 25.159566799375675]]}}, {"type": "Feature", "properties": {"id": "osm-381447697-0-view-0", "osmWay": 381447697, "name": "美通橋", "kind": "residential", "width": 1.6, "widthSource": "estimated by road class", "displayRole": "landmark-access"}, "geometry": {"type": "LineString", "coordinates": [[121.54968339866976, 25.133985199034317], [121.54961519849513, 25.13404280043119]]}}, {"type": "Feature", "properties": {"id": "osm-136183929-0-view-0", "osmWay": 136183929, "name": "湖山路二段", "kind": "tertiary", "width": 2.56, "widthSource": "estimated by road class", "displayRole": "main"}, "geometry": {"type": "LineString", "coordinates": [[121.5396726003912, 25.156886699213977], [121.53950569865889, 25.156939898886094], [121.53902289860487, 25.157189399200504], [121.53893710028579, 25.157296699663135], [121.53885129886571, 25.157489800071865], [121.53872249905427, 25.15779020094323], [121.53866860066681, 25.15791159927686], [121.53855089931511, 25.15817639895347], [121.53842209950366, 25.158498300341357], [121.5384006995398, 25.15854120031441], [121.5383268989689, 25.158610499407114], [121.53793670081615, 25.15876679993712], [121.53761210110355, 25.158909900907293], [121.53732779881601, 25.15914199924991], [121.53689859945395, 25.159549700583902], [121.53642650093236, 25.15987159916457], [121.53628309853727, 25.159999100399748], [121.53616909977313, 25.160086200089832], [121.53604239933503, 25.16025570017966], [121.53590879918393, 25.16052209997305], [121.53584789875063, 25.160555000619834], [121.53578860153155, 25.160565901064498]]}}, {"type": "Feature", "properties": {"id": "osm-1092660326-0-view-0", "osmWay": 1092660326, "name": "中興路", "kind": "unclassified", "width": 1.6, "widthSource": "estimated by road class", "displayRole": "main"}, "geometry": {"type": "LineString", "coordinates": [[121.5396726003912, 25.156886699213977], [121.53962370080708, 25.157167898683973], [121.53955260120249, 25.157322200471615], [121.53914970137579, 25.15785850066475], [121.53912320027578, 25.157954100624327], [121.53911279953984, 25.15800299963169], [121.5390873000611, 25.158138201077975], [121.53902289860487, 25.1583694993622], [121.53900149864101, 25.158498300341357], [121.53898550060978, 25.15880749904779], [121.53897780084014, 25.158834900345852], [121.53895739939655, 25.158887401019584], [121.53888500047522, 25.158963998890584], [121.5388799985709, 25.15901989911067], [121.53889039930685, 25.159066998688466]]}}, {"type": "Feature", "properties": {"id": "osm-230730588-0-view-0", "osmWay": 230730588, "name": "中興路", "kind": "unclassified", "width": 1.6, "widthSource": "estimated by road class", "displayRole": "main"}, "geometry": {"type": "LineString", "coordinates": [[121.54479160136731, 25.163198500215596], [121.5446168014017, 25.163222600220088], [121.54438729989104, 25.163347701280095], [121.54397759958314, 25.163664900570428], [121.54355049959445, 25.163991501248653], [121.54339359856978, 25.164069699236435], [121.54312669906403, 25.164215099321776], [121.54295099980999, 25.164280299869745], [121.54280800054418, 25.164344501046532], [121.54267920073274, 25.164427799757455], [121.54262009887631, 25.16446609869296], [121.54254619907358, 25.16453709896245], [121.54238379998546, 25.16466189964966], [121.5423415985497, 25.164689601320518], [121.54225090065913, 25.16470719979788], [121.54216450074709, 25.164682998733383], [121.54204050127531, 25.16459749916008], [121.54199749978295, 25.164554599187028], [121.54197609981908, 25.16446879924093], [121.54197609981908, 25.164404398751348], [121.54199749978295, 25.164318598805245], [121.54207440134847, 25.164186100714158], [121.54218590071095, 25.164052401131872], [121.54264930094263, 25.163648099344233], [121.54269620038524, 25.163566799375673], [121.54271769958092, 25.16346660118577], [121.54270700114948, 25.163402298948977], [121.54264930094263, 25.163283300790514], [121.54259499942589, 25.163226900884837], [121.54149059879876, 25.162446498666007], [121.54138330128399, 25.162403598692958], [121.54131889982777, 25.162403598692958], [121.541211599212, 25.162403598692958], [121.54054639865458, 25.16251089915559], [121.54048539898946, 25.162498698966942], [121.54043910113981, 25.16248939863906], [121.54033180052404, 25.162360698719908], [121.54031040056019, 25.162317798746855], [121.54028420025666, 25.162235499407114], [121.5402809007984, 25.16214729928584], [121.54031040056019, 25.16201729962271]]}}, {"type": "Feature", "properties": {"id": "osm-1278385948-0-view-0", "osmWay": 1278385948, "name": "", "kind": "residential", "width": 1.6, "widthSource": "estimated by road class", "displayRole": "landmark-access"}, "geometry": {"type": "LineString", "coordinates": [[121.54804029945963, 25.128690101006107], [121.54800830029617, 25.128633998666007], [121.54799229916395, 25.128577800880347], [121.54797899899803, 25.128518798679483], [121.54802739932202, 25.128302600444663], [121.54804919931419, 25.128117399559827], [121.54804330122242, 25.12797569939364], [121.54805849919704, 25.127878499317283], [121.54806539891007, 25.127745498733383], [121.54806459885346, 25.12767630070068], [121.54805679985199, 25.12764610060187], [121.54803700000136, 25.12761599875584], [121.54801110049432, 25.12760099976644], [121.5479784997379, 25.127599399649657], [121.54795519886434, 25.127608899290333], [121.54794000088972, 25.127625599456522], [121.54791879938952, 25.12765679892652], [121.54786120151549, 25.127810901401364], [121.54777360151854, 25.12801909905228], [121.54770009864312, 25.12817130103755], [121.54761030004097, 25.12845460030992], [121.54757439982629, 25.12856339982932], [121.54754179906986, 25.128628698630077], [121.54750730050475, 25.128684301284586]]}}, {"type": "Feature", "properties": {"id": "osm-230730590-0-view-0", "osmWay": 230730590, "name": "", "kind": "service", "width": 1.28, "widthSource": "estimated by road class", "displayRole": "landmark-access"}, "geometry": {"type": "LineString", "coordinates": [[121.54054639865458, 25.16251089915559], [121.54078060127308, 25.16259779953288], [121.54116950010908, 25.16281130002695]]}}, {"type": "Feature", "properties": {"id": "osm-135930117-0-view-2", "osmWay": 135930117, "name": "", "kind": "service", "width": 1.28, "widthSource": "estimated by road class", "displayRole": "landmark-access"}, "geometry": {"type": "LineString", "coordinates": [[121.5535404995021, 25.155881300925262], [121.55248579851572, 25.15630619930381], [121.55232250013914, 25.155982200920768], [121.55215240128138, 25.155591199752966]]}}, {"type": "Feature", "properties": {"id": "osm-135930125-0-view-0", "osmWay": 135930125, "name": "陽明路一段24巷3弄", "kind": "residential", "width": 1.6, "widthSource": "estimated by road class", "displayRole": "landmark-access"}, "geometry": {"type": "LineString", "coordinates": [[121.54974459989953, 25.14863180061085], [121.5499613005044, 25.149360698719907]]}}, {"type": "Feature", "properties": {"id": "osm-379991451-0-view-0", "osmWay": 379991451, "name": "", "kind": "service", "width": 1.28, "widthSource": "estimated by road class", "displayRole": "landmark-access"}, "geometry": {"type": "LineString", "coordinates": [[121.54899080082488, 25.14360869997754], [121.54916579925414, 25.14366689931279], [121.54927849870153, 25.143700900390765], [121.5493910989171, 25.14376889973949], [121.54950380146548, 25.14386120121272], [121.54954939849034, 25.14391339870643], [121.54954939849034, 25.1440177993083], [121.54949029973491, 25.144184099164573]]}}, {"type": "Feature", "properties": {"id": "osm-135930129-0-view-0", "osmWay": 135930129, "name": "", "kind": "service", "width": 1.28, "widthSource": "estimated by road class", "displayRole": "landmark-access"}, "geometry": {"type": "LineString", "coordinates": [[121.5493404007561, 25.15343389985178], [121.54913099989254, 25.153148298657026], [121.54894419907777, 25.15295579899389], [121.5487639010487, 25.15278229861211], [121.54844310005451, 25.15243069961822]]}}, {"type": "Feature", "properties": {"id": "osm-135930133-0-view-4", "osmWay": 135930133, "name": "", "kind": "service", "width": 1.28, "widthSource": "estimated by road class", "displayRole": "landmark-access"}, "geometry": {"type": "LineString", "coordinates": [[121.55215240128138, 25.155591199752966], [121.55209510110284, 25.155591999811357]]}}, {"type": "Feature", "properties": {"id": "osm-369954912-0-view-0", "osmWay": 369954912, "name": "紗帽路", "kind": "unclassified", "width": 1.6, "widthSource": "estimated by road class", "displayRole": "main"}, "geometry": {"type": "LineString", "coordinates": [[121.53247680129974, 25.140144099052282], [121.53261250082421, 25.140221499788897], [121.5326242008769, 25.1403455986705], [121.53260899980128, 25.140500798769313], [121.5326199990292, 25.140599001024075], [121.53263209911019, 25.140631098805247], [121.53266959943811, 25.140764200449155], [121.53274500012223, 25.14108399922745], [121.53284500099667, 25.141298998778296], [121.5329136011996, 25.14149739922296], [121.53292170099753, 25.141560601028566], [121.53293540119176, 25.141611299465506], [121.53290960091654, 25.141782700044917], [121.53286129982438, 25.141890800565935], [121.53274200146043, 25.14200490012127], [121.53264409995937, 25.142104399312792], [121.53260840130933, 25.14219250118128], [121.5325080004066, 25.14231199902533], [121.53244870008652, 25.142364300386273], [121.53227260080416, 25.14253179892652], [121.53218540083552, 25.14264469979788], [121.53211430123092, 25.142868601051024], [121.53199000096267, 25.142996001226194], [121.5317760013241, 25.14312600088933], [121.5317030008098, 25.14318599965415], [121.53153380124047, 25.143387299959578], [121.53139959949641, 25.143555199932628], [121.53140990100053, 25.143654300498564], [121.53145049922206, 25.143708999227453], [121.53151400138984, 25.14376699924991]]}}, {"type": "Feature", "properties": {"id": "osm-135930147-0-view-1", "osmWay": 135930147, "name": "陽明路一段24巷", "kind": "residential", "width": 1.6, "widthSource": "estimated by road class", "displayRole": "landmark-access"}, "geometry": {"type": "LineString", "coordinates": [[121.54974459989953, 25.14863180061085], [121.54968739895281, 25.14865250106899], [121.54948580019172, 25.148774199775424], [121.54937729949104, 25.148864999384656]]}}, {"type": "Feature", "properties": {"id": "osm-380477535-0-view-0", "osmWay": 380477535, "name": "格致路", "kind": "primary", "width": 3.84, "widthSource": "estimated by road class", "displayRole": "main"}, "geometry": {"type": "LineString", "coordinates": [[121.54945649889358, 25.14612029942059], [121.54966940078005, 25.145626899200504], [121.54974490069601, 25.14543599965415], [121.5497982005915, 25.145235999092705], [121.54979610121815, 25.145078901311535], [121.54977200028797, 25.14493740045814], [121.54969819971707, 25.144833600601867], [121.54944879912395, 25.144655198809737], [121.54927450151946, 25.144527700381783], [121.54915310068118, 25.144418999115164], [121.54904440151685, 25.1443066989894], [121.54897639980588, 25.144208999227452], [121.54892279911391, 25.144106701235177], [121.54890000060148, 25.14401630025153], [121.54889390094506, 25.143920399919153], [121.54890579946141, 25.14383410028746], [121.54897769912262, 25.143646499227454], [121.54899080082488, 25.14360869997754], [121.54906569914787, 25.143405299869745], [121.54926850109489, 25.14289549985627], [121.54946659883305, 25.14239820040424], [121.54947850045039, 25.142360799779915], [121.54972809950718, 25.141726100826446], [121.54990440035417, 25.14129089994161], [121.54994360002713, 25.14116600100162], [121.54993430014427, 25.141062799083723], [121.54989009856699, 25.140946299353217], [121.54981630109708, 25.14085770060636], [121.54971170144763, 25.140786001338483], [121.54957069922237, 25.14073320029195], [121.54938779945881, 25.140681499676607], [121.54874700062804, 25.14057899956432], [121.54833339926891, 25.140509400098814], [121.54819350099773, 25.140467900929753], [121.54810769957766, 25.1404157988816], [121.54802190125856, 25.140335599344233], [121.54786610108698, 25.140154699124146], [121.54775489942, 25.140068500552463], [121.54766649936643, 25.140012701392383], [121.54757119959984, 25.139976199079232], [121.54745989870102, 25.139950701077975], [121.54685240145143, 25.139881500238054], [121.54664319905154, 25.13984639872889], [121.54653529994381, 25.139820299982034], [121.54646279868966, 25.13977320040424], [121.5464081002456, 25.13971180083543], [121.54636349864, 25.139633498980416], [121.54633709987283, 25.13956850055246], [121.54632799845362, 25.13949469867499], [121.54634060089575, 25.13938399866601], [121.54643830083218, 25.13898270060636]]}}, {"type": "Feature", "properties": {"id": "osm-380891573-0-view-0", "osmWay": 380891573, "name": "格致路", "kind": "primary", "width": 3.84, "widthSource": "estimated by road class", "displayRole": "main"}, "geometry": {"type": "LineString", "coordinates": [[121.54633460047117, 25.136706001113907], [121.54618219898968, 25.136048799465506], [121.54609150109911, 25.135657700044916]]}}, {"type": "Feature", "properties": {"id": "osm-380891575-0-view-0", "osmWay": 380891575, "name": "中庸一路", "kind": "residential", "width": 1.6, "widthSource": "estimated by road class", "displayRole": "main"}, "geometry": {"type": "LineString", "coordinates": [[121.54948019979544, 25.134158800476104], [121.54937400003277, 25.134207000485087], [121.5491766000184, 25.134302600444663], [121.54910239941918, 25.134353099568813], [121.54900090076436, 25.134423998778296], [121.5489186003672, 25.13450020083094], [121.54869469925282, 25.134707601230687], [121.54823150058577, 25.135136600961193], [121.54793769995172, 25.135408800476107]]}}, {"type": "Feature", "properties": {"id": "osm-380891576-0-view-0", "osmWay": 380891576, "name": "中庸一路", "kind": "residential", "width": 1.6, "widthSource": "estimated by road class", "displayRole": "main"}, "geometry": {"type": "LineString", "coordinates": [[121.55361969890464, 25.129104000687207], [121.55348580105805, 25.129087398773805], [121.55320570061821, 25.129278500440172], [121.55260039887281, 25.129661501024074], [121.55200969971106, 25.130156899986524], [121.55185149936965, 25.130301398953467], [121.55160609905958, 25.130613000642292], [121.55137269959869, 25.130963600265], [121.55128530116639, 25.131199100961194], [121.55121100133535, 25.131486400525514], [121.55109760106316, 25.132035599905677], [121.55102589986562, 25.132184500597376], [121.55092269876474, 25.132355699056774], [121.55081209869071, 25.132457399110674], [121.55065669854743, 25.132539998823212], [121.550496200369, 25.132695900727633], [121.5504050001173, 25.132825600017966], [121.55034499897243, 25.132872601342974], [121.55028229996226, 25.132924400211103], [121.5501817998277, 25.13302129991466], [121.55005610101087, 25.133179700247037], [121.54987850084713, 25.133570499294827], [121.54974919867455, 25.1338934000539], [121.54968339866976, 25.133985199034317]]}}, {"type": "Feature", "properties": {"id": "osm-380891578-0-view-0", "osmWay": 380891578, "name": "凱旋路", "kind": "residential", "width": 1.6, "widthSource": "estimated by road class", "displayRole": "main"}, "geometry": {"type": "LineString", "coordinates": [[121.54177770128445, 25.136460899717033], [121.54179830119169, 25.136476401199246], [121.54207250043876, 25.13654890052551]]}}, {"type": "Feature", "properties": {"id": "osm-380891579-0-view-0", "osmWay": 380891579, "name": "凱旋路", "kind": "residential", "width": 1.6, "widthSource": "estimated by road class", "displayRole": "main"}, "geometry": {"type": "LineString", "coordinates": [[121.54318269992582, 25.13547249916008], [121.5436453001009, 25.135788101140857], [121.54381579898698, 25.13584909927686], [121.54422959880975, 25.136076400076355], [121.54432140065443, 25.13617180072314], [121.54437460131808, 25.1362059000539], [121.54452610041012, 25.13621820130255], [121.5457911015485, 25.136849001024075]]}}, {"type": "Feature", "properties": {"id": "osm-381447698-0-view-0", "osmWay": 381447698, "name": "中庸一路", "kind": "residential", "width": 1.6, "widthSource": "estimated by road class", "displayRole": "main"}, "geometry": {"type": "LineString", "coordinates": [[121.54961519849513, 25.13404280043119], [121.54948019979544, 25.134158800476104]]}}, {"type": "Feature", "properties": {"id": "osm-674242215-0-view-2", "osmWay": 674242215, "name": "", "kind": "path", "width": 0.512, "widthSource": "estimated by road class", "displayRole": "landmark-access"}, "geometry": {"type": "LineString", "coordinates": [[121.55080990008553, 25.138387299959575], [121.55077769935741, 25.13781179971254], [121.55086360000932, 25.13730680004941], [121.55085409856181, 25.137111599838303], [121.55083539956426, 25.13707339915559]]}}, {"type": "Feature", "properties": {"id": "osm-323949663-0-view-0", "osmWay": 323949663, "name": "泉源路", "kind": "tertiary", "width": 2.56, "widthSource": "estimated by road class", "displayRole": "main"}, "geometry": {"type": "LineString", "coordinates": [[121.53285070062478, 25.151894899110673], [121.53288870021282, 25.151966999811354], [121.532929499999, 25.15200570017966], [121.53295749887941, 25.152028399380164], [121.53302740150008, 25.15202830112738], [121.5330966994268, 25.151995599793388]]}}, {"type": "Feature", "properties": {"id": "osm-323949665-0-view-0", "osmWay": 323949665, "name": "鼎筆橋", "kind": "tertiary", "width": 2.56, "widthSource": "estimated by road class", "displayRole": "landmark-access"}, "geometry": {"type": "LineString", "coordinates": [[121.5327377003809, 25.15165599886813], [121.53285070062478, 25.151894899110673]]}}, {"type": "Feature", "properties": {"id": "osm-689317155-0-view-0", "osmWay": 689317155, "name": "新園街", "kind": "residential", "width": 1.6, "widthSource": "estimated by road class", "displayRole": "main"}, "geometry": {"type": "LineString", "coordinates": [[121.5512426004705, 25.150321599726016], [121.55132109904825, 25.150365701190264]]}}, {"type": "Feature", "properties": {"id": "osm-399421230-0-view-0", "osmWay": 399421230, "name": "紗帽路", "kind": "tertiary", "width": 2.56, "widthSource": "estimated by road class", "displayRole": "main"}, "geometry": {"type": "LineString", "coordinates": [[121.53829779923541, 25.14394190043568], [121.53850710086712, 25.143757698922027], [121.53856709891099, 25.143719001360942], [121.53860760100169, 25.143691998688467], [121.53865160101432, 25.143675099209485], [121.53868120000794, 25.14366810080399], [121.53871359919971, 25.143665501316026], [121.5387771013675, 25.14367879912864], [121.53880580107268, 25.143690999317283], [121.53883000123467, 25.14370739911067], [121.53888290110186, 25.14374880002695], [121.5391263012704, 25.144007499609234], [121.53925310094031, 25.144063500889327], [121.53942950101914, 25.14405400124865], [121.53950569865889, 25.14401630025153], [121.53957019934694, 25.143952500507545], [121.53962210069386, 25.143778000754583], [121.53967429973625, 25.14364290036831], [121.53975440152823, 25.143415501316028], [121.53982169931342, 25.14318500028297], [121.53987099892585, 25.142932299734998], [121.53990169877257, 25.142845399357707], [121.53995159997795, 25.1427830986705], [121.54002109946933, 25.142751099142114], [121.54041660032287, 25.142756098805247], [121.54081669995142, 25.14274769959576], [121.54107439880615, 25.142753198944483], [121.54120330095041, 25.142781599613727], [121.54127409975852, 25.142817599434064], [121.5413478010976, 25.142854098939992], [121.54150720152394, 25.142944300610854], [121.54163579977073, 25.143064399200505], [121.54172930096045, 25.143154999496947], [121.54190780041263, 25.143245799106182], [121.54217109966363, 25.143329900682716], [121.54243490127575, 25.14337940043568], [121.54266639982696, 25.1433774999461], [121.54288159955044, 25.143357400233562], [121.54295269915504, 25.14333710120823], [121.54313029931878, 25.143178100130257], [121.54323620138597, 25.143076599389147], [121.54332030036, 25.1429711994161], [121.54340569865077, 25.142919498800754], [121.54351120068966, 25.142911899649658], [121.54358009858808, 25.14289870008983], [121.54366530151619, 25.142855199371184], [121.54373110152099, 25.142807600107798], [121.54388239904839, 25.142699999272367], [121.54396999904533, 25.142626301262126], [121.54410590013445, 25.14252850044017], [121.54416339877666, 25.142439898886096], [121.54420310081075, 25.142347299847287]]}}, {"type": "Feature", "properties": {"id": "osm-704408460-0-view-0", "osmWay": 704408460, "name": "紗帽路", "kind": "tertiary", "width": 2.56, "widthSource": "estimated by road class", "displayRole": "main"}, "geometry": {"type": "LineString", "coordinates": [[121.54420310081075, 25.142347299847287], [121.54430490026206, 25.142281099928134], [121.54436929861728, 25.14224719991017], [121.54448330048241, 25.142254400435682], [121.54459129882197, 25.142266499564318], [121.54477619872704, 25.142319800296445], [121.54481670081775, 25.142331500799497], [121.5450299003997, 25.14239770071865], [121.54538180126892, 25.142434598850162], [121.5454789988442, 25.142471800161697], [121.54556209929798, 25.14254840083992], [121.54577089856856, 25.14279250005839], [121.54595310060833, 25.14298460109594], [121.5461577011322, 25.143120100107797], [121.54640600087224, 25.143274699461013], [121.54671089996603, 25.1434319993622], [121.54703679899538, 25.14357709907474], [121.5471814014754, 25.143664600197628], [121.54725540050997, 25.14370940066026], [121.54735939856646, 25.143799899896695], [121.54752630029877, 25.144012299959577], [121.54760450118104, 25.144141401311536], [121.54787809883516, 25.144593299555336], [121.54796470031185, 25.144752901378908], [121.54804069948794, 25.14491129890406], [121.54813050119108, 25.145201400076356], [121.54816469895972, 25.14539329899389], [121.54817999926716, 25.145586800835428], [121.54819600039939, 25.145663600826445], [121.54823760024219, 25.14580189863906], [121.54825029881515, 25.1458305996811], [121.54833280077695, 25.14601679993712], [121.54856620023784, 25.14657629901635], [121.54862660141102, 25.146820401042042], [121.54862519976145, 25.147069800296443], [121.54862399967652, 25.14747489933525], [121.54862060098642, 25.14753990057043], [121.54862569902157, 25.147788000080848], [121.54862660141102, 25.148047999407115], [121.54861319891228, 25.148216500125763], [121.54850579906469, 25.148731400862378], [121.54839460049868, 25.14913100055246]]}}, {"type": "Feature", "properties": {"id": "osm-195756555-0-view-0", "osmWay": 195756555, "name": "孔子大道", "kind": "service", "width": 1.28, "widthSource": "estimated by road class", "displayRole": "landmark-access"}, "geometry": {"type": "LineString", "coordinates": [[121.5393032998412, 25.13574830034136], [121.53932039872551, 25.135882300296444], [121.53919090119028, 25.136315999317283], [121.53916030057539, 25.136393501113908], [121.53912139859791, 25.13646100077704], [121.53893180068599, 25.136810499968558], [121.53885670079833, 25.136940401378908], [121.53876110023526, 25.137098200965685]]}}, {"type": "Feature", "properties": {"id": "osm-195756557-0-view-0", "osmWay": 195756557, "name": "凱旋路61巷", "kind": "residential", "width": 1.6, "widthSource": "estimated by road class", "displayRole": "landmark-access"}, "geometry": {"type": "LineString", "coordinates": [[121.54197989853749, 25.13543790014373], [121.54199749978295, 25.13545209907474], [121.54199490114945, 25.13548030043119], [121.5418876005337, 25.135953800251528], [121.54177770128445, 25.136460899717033]]}}, {"type": "Feature", "properties": {"id": "osm-195756561-0-view-0", "osmWay": 195756561, "name": "華岡路", "kind": "living_street", "width": 1.28, "widthSource": "estimated by road class", "displayRole": "main"}, "geometry": {"type": "LineString", "coordinates": [[121.5415489998304, 25.13688100055246], [121.54140849996625, 25.137155198809737], [121.54128459972631, 25.137405600242545], [121.54118819910663, 25.13762710132052], [121.5411654005942, 25.137682701167805], [121.5411074988227, 25.137840899380166]]}}, {"type": "Feature", "properties": {"id": "osm-195762015-0-view-0", "osmWay": 195762015, "name": "華岡路", "kind": "service", "width": 1.28, "widthSource": "estimated by road class", "displayRole": "main"}, "geometry": {"type": "LineString", "coordinates": [[121.53827380063807, 25.136582898796263], [121.53823300085187, 25.13647550008085], [121.53817970095639, 25.13636869930381], [121.5381403989506, 25.13626980085789], [121.53805799932162, 25.136217499496947], [121.53793640001967, 25.13614800109145], [121.53783610144976, 25.136113000642293], [121.53777400093155, 25.13608790126662], [121.53775140088277, 25.136063599142112], [121.53771070032842, 25.135989300386274], [121.53770399907904, 25.135897798971435], [121.53776209931421, 25.13573110048958], [121.53779639941567, 25.135655600242544], [121.53786760135308, 25.135443399492456]]}}, {"type": "Feature", "properties": {"id": "osm-704408471-0-view-0", "osmWay": 704408471, "name": "湖山路一段", "kind": "tertiary", "width": 2.56, "widthSource": "estimated by road class", "displayRole": "main"}, "geometry": {"type": "LineString", "coordinates": [[121.54180200067826, 25.151627800318902], [121.5420874007179, 25.151636901333994], [121.54320390142603, 25.151822700157204], [121.54354569925478, 25.15188080123967], [121.54412789859028, 25.151903598692957], [121.54429150086432, 25.151909401221705]]}}, {"type": "Feature", "properties": {"id": "osm-195762017-0-view-0", "osmWay": 195762017, "name": "愛富三街", "kind": "living_street", "width": 1.28, "widthSource": "estimated by road class", "displayRole": "main"}, "geometry": {"type": "LineString", "coordinates": [[121.54407179849665, 25.13903019880974], [121.54406689892515, 25.13896020071865], [121.54418170084689, 25.138637600332377]]}}, {"type": "Feature", "properties": {"id": "osm-704408467-0-view-0", "osmWay": 704408467, "name": "湖山路一段", "kind": "tertiary", "width": 2.56, "widthSource": "estimated by road class", "displayRole": "main"}, "geometry": {"type": "LineString", "coordinates": [[121.54510069920781, 25.151932998733383], [121.54533799971993, 25.151938599142113], [121.54552949854155, 25.15197839994161], [121.54593229913642, 25.15212540014373], [121.5461534992845, 25.15222679982483]]}}, {"type": "Feature", "properties": {"id": "osm-195762022-0-view-0", "osmWay": 195762022, "name": "", "kind": "service", "width": 1.28, "widthSource": "estimated by road class", "displayRole": "landmark-access"}, "geometry": {"type": "LineString", "coordinates": [[121.54078939879481, 25.136589599636185], [121.54040459947369, 25.13745369919152]]}}, {"type": "Feature", "properties": {"id": "osm-195762023-0-view-0", "osmWay": 195762023, "name": "光華路26巷", "kind": "residential", "width": 1.6, "widthSource": "estimated by road class", "displayRole": "landmark-access"}, "geometry": {"type": "LineString", "coordinates": [[121.54140849996625, 25.137155198809737], [121.542025700228, 25.137402899694575]]}}, {"type": "Feature", "properties": {"id": "osm-195762024-0-view-0", "osmWay": 195762024, "name": "愛富二街", "kind": "living_street", "width": 1.28, "widthSource": "estimated by road class", "displayRole": "main"}, "geometry": {"type": "LineString", "coordinates": [[121.54643830083218, 25.13898270060636], [121.54632739996167, 25.138948500215594], [121.54601120084348, 25.138943699865255], [121.54551049874753, 25.13894129969008], [121.5445951998732, 25.138729898998385], [121.54418170084689, 25.138637600332377]]}}, {"type": "Feature", "properties": {"id": "osm-195762026-0-view-0", "osmWay": 195762026, "name": "華岡路", "kind": "living_street", "width": 1.28, "widthSource": "estimated by road class", "displayRole": "main"}, "geometry": {"type": "LineString", "coordinates": [[121.54418170084689, 25.138637600332377], [121.54401710005259, 25.138608500664752], [121.54382490040618, 25.138519000799498], [121.54370450118915, 25.138462999519405], [121.54357260038309, 25.138402099636185], [121.54355619922255, 25.138394500485088], [121.54281480102537, 25.138068200179664], [121.54250539928739, 25.137985900839922], [121.54204199905571, 25.137928100130257], [121.54187950073575, 25.13795689942508], [121.54173029948072, 25.137958999227454], [121.54148030039563, 25.137946700786024], [121.54129850148517, 25.137901100265], [121.5411074988227, 25.137840899380166]]}}, {"type": "Feature", "properties": {"id": "osm-1379084742-0-view-0", "osmWay": 1379084742, "name": "香山橋", "kind": "service", "width": 1.28, "widthSource": "estimated by road class", "displayRole": "landmark-access"}, "geometry": {"type": "LineString", "coordinates": [[121.55209510110284, 25.155591999811357], [121.55196019853398, 25.15558570040424], [121.55179509847954, 25.155548100467122]]}}, {"type": "Feature", "properties": {"id": "osm-195837558-0-view-0", "osmWay": 195837558, "name": "建業路", "kind": "residential", "width": 1.6, "widthSource": "estimated by road class", "displayRole": "main"}, "geometry": {"type": "LineString", "coordinates": [[121.54609150109911, 25.135657700044916], [121.54734530144492, 25.135322298724397], [121.5476156988726, 25.135283000417715], [121.54772520119454, 25.135300200269494], [121.54786300009236, 25.135372399222963], [121.54793769995172, 25.135408800476107], [121.54817060015247, 25.135651799263385], [121.54828930002445, 25.135777298948977], [121.54837009954021, 25.135862700269495], [121.54839119870759, 25.135885000844414], [121.5485663987015, 25.135988898953467], [121.54867910124989, 25.13605569961822], [121.54945039923717, 25.136466399065757], [121.5495117989306, 25.13649910039975], [121.54974250052618, 25.13662540014373], [121.54988469973536, 25.13672249916008], [121.55002409874642, 25.13690220069619], [121.55022179955728, 25.137230499743982], [121.55031019961083, 25.137399999833814]]}}, {"type": "Feature", "properties": {"id": "osm-824880477-0-view-0", "osmWay": 824880477, "name": "凱旋路61巷2弄", "kind": "service", "width": 1.28, "widthSource": "estimated by road class", "displayRole": "landmark-access"}, "geometry": {"type": "LineString", "coordinates": [[121.54062019922549, 25.135596901221703], [121.54096219861889, 25.135693200179663], [121.5418876005337, 25.135953800251528]]}}, {"type": "Feature", "properties": {"id": "osm-1301787691-0-view-0", "osmWay": 1301787691, "name": "", "kind": "footway", "width": 0.576, "widthSource": "estimated by road class", "displayRole": "landmark-access"}, "geometry": {"type": "LineString", "coordinates": [[121.54504419908588, 25.15202080022907], [121.54505059953877, 25.15196799918254]]}}, {"type": "Feature", "properties": {"id": "osm-832830861-0-view-0", "osmWay": 832830861, "name": "格致路56巷", "kind": "residential", "width": 1.6, "widthSource": "estimated by road class", "displayRole": "landmark-access"}, "geometry": {"type": "LineString", "coordinates": [[121.54652819866614, 25.137652099636185], [121.54693480108041, 25.13778479984729]]}}, {"type": "Feature", "properties": {"id": "osm-832830862-0-view-0", "osmWay": 832830862, "name": "格致路50巷", "kind": "residential", "width": 1.6, "widthSource": "estimated by road class", "displayRole": "landmark-access"}, "geometry": {"type": "LineString", "coordinates": [[121.54650900040846, 25.13753049918254], [121.54668530125547, 25.13749830034136]]}}, {"type": "Feature", "properties": {"id": "osm-833707133-0-view-0", "osmWay": 833707133, "name": "", "kind": "footway", "width": 0.576, "widthSource": "estimated by road class", "displayRole": "landmark-access"}, "geometry": {"type": "LineString", "coordinates": [[121.54505059953877, 25.15196799918254], [121.54510069920781, 25.151932998733383]]}}, {"type": "Feature", "properties": {"id": "osm-440915460-0-view-10", "osmWay": 440915460, "name": "", "kind": "footway", "width": 0.576, "widthSource": "estimated by road class", "displayRole": "landmark-access"}, "geometry": {"type": "LineString", "coordinates": [[121.54825679849986, 25.150485300094324], [121.54822599942132, 25.150513299330758], [121.54820859974052, 25.15054120031441], [121.54817770143015, 25.15056179971254]]}}, {"type": "Feature", "properties": {"id": "osm-863072925-0-view-0", "osmWay": 863072925, "name": "光華路", "kind": "residential", "width": 1.6, "widthSource": "estimated by road class", "displayRole": "main"}, "geometry": {"type": "LineString", "coordinates": [[121.5463926014745, 25.136989300386276], [121.54599780144574, 25.136903500440173]]}}, {"type": "Feature", "properties": {"id": "osm-440915462-0-view-3", "osmWay": 440915462, "name": "", "kind": "footway", "width": 0.576, "widthSource": "estimated by road class", "displayRole": "landmark-access"}, "geometry": {"type": "LineString", "coordinates": [[121.54804830002575, 25.150424599523895], [121.54805119945571, 25.150423299779913], [121.54807920143712, 25.15043439953737], [121.54810550097247, 25.150442899806862], [121.54813300059274, 25.150446599726017], [121.54817260029401, 25.15043870020212], [121.5481919008845, 25.15043279942059], [121.54821059988205, 25.150426000327883]]}}, {"type": "Feature", "properties": {"id": "osm-440915463-0-view-0", "osmWay": 440915463, "name": "", "kind": "footway", "width": 0.576, "widthSource": "estimated by road class", "displayRole": "landmark-access"}, "geometry": {"type": "LineString", "coordinates": [[121.54821059988205, 25.150426000327883], [121.54823100132565, 25.150460298971435], [121.54825200126119, 25.150480398683975], [121.54825679849986, 25.150485300094324]]}}, {"type": "Feature", "properties": {"id": "osm-440915464-0-view-0", "osmWay": 440915464, "name": "", "kind": "footway", "width": 0.576, "widthSource": "estimated by road class", "displayRole": "landmark-access"}, "geometry": {"type": "LineString", "coordinates": [[121.54781869928325, 25.150237700269493], [121.54787439934859, 25.150263201077973], [121.54793449972527, 25.150296500350343], [121.5479562004856, 25.15031259977093], [121.54797790124594, 25.150328600938735], [121.54797649959637, 25.150340399694574]]}}, {"type": "Feature", "properties": {"id": "osm-524342579-0-view-2", "osmWay": 524342579, "name": "", "kind": "footway", "width": 0.576, "widthSource": "estimated by road class", "displayRole": "landmark-access"}, "geometry": {"type": "LineString", "coordinates": [[121.54974250052618, 25.13662540014373], [121.54978669900247, 25.13657499927237]]}}, {"type": "Feature", "properties": {"id": "osm-896506431-0-view-12", "osmWay": 896506431, "name": "凱旋路61巷4弄", "kind": "unclassified", "width": 1.6, "widthSource": "estimated by road class", "displayRole": "landmark-access"}, "geometry": {"type": "LineString", "coordinates": [[121.54028269937527, 25.134904999496946], [121.54054930118554, 25.13506270083094], [121.5407658994576, 25.135151599950593], [121.5408381991471, 25.135146998913044], [121.54117710064689, 25.135244100736614], [121.54197989853749, 25.13543790014373]]}}, {"type": "Feature", "properties": {"id": "osm-704408459-0-view-0", "osmWay": 704408459, "name": "愛富三街12巷", "kind": "unclassified", "width": 1.6, "widthSource": "estimated by road class", "displayRole": "landmark-access"}, "geometry": {"type": "LineString", "coordinates": [[121.54407179849665, 25.13903019880974], [121.54400370065484, 25.13909829921847], [121.543738001234, 25.13953739933525], [121.54370799911108, 25.13975470080848], [121.54373770043753, 25.139861900211102], [121.54390730003516, 25.14001299895796], [121.5439448995949, 25.14012589982932], [121.54396500024201, 25.140303400503054], [121.54381350114997, 25.140610999092704], [121.54361509951433, 25.140921399290335], [121.54360019923519, 25.14091369907923]]}}, {"type": "Feature", "properties": {"id": "osm-524342580-0-view-0", "osmWay": 524342580, "name": "", "kind": "steps", "width": 0.48, "widthSource": "estimated by road class", "displayRole": "landmark-access"}, "geometry": {"type": "LineString", "coordinates": [[121.54978669900247, 25.13657499927237], [121.54979450110493, 25.136442599434066]]}}, {"type": "Feature", "properties": {"id": "osm-919696641-0-view-0", "osmWay": 919696641, "name": "", "kind": "footway", "width": 0.576, "widthSource": "estimated by road class", "displayRole": "landmark-access"}, "geometry": {"type": "LineString", "coordinates": [[121.5396925987055, 25.159452301194754], [121.5397073997528, 25.159479098939993]]}}, {"type": "Feature", "properties": {"id": "osm-380665340-0-view-0", "osmWay": 380665340, "name": "紗帽橋", "kind": "residential", "width": 1.6, "widthSource": "estimated by road class", "displayRole": "landmark-access"}, "geometry": {"type": "LineString", "coordinates": [[121.54800439924495, 25.15012970080848], [121.54811840111007, 25.150181800049406]]}}, {"type": "Feature", "properties": {"id": "osm-440915468-0-view-0", "osmWay": 440915468, "name": "", "kind": "footway", "width": 0.576, "widthSource": "estimated by road class", "displayRole": "landmark-access"}, "geometry": {"type": "LineString", "coordinates": [[121.54817770143015, 25.15056179971254], [121.54818249866882, 25.150625798769315], [121.5481577992467, 25.150675500642294], [121.54813919948097, 25.150696299353218], [121.54812860028137, 25.150715500754583], [121.54812589931507, 25.150735600467122]]}}, {"type": "Feature", "properties": {"id": "osm-440915470-0-view-0", "osmWay": 440915470, "name": "", "kind": "footway", "width": 0.576, "widthSource": "estimated by road class", "displayRole": "landmark-access"}, "geometry": {"type": "LineString", "coordinates": [[121.54835519926107, 25.150280799555336], [121.54837289973835, 25.150249799398132], [121.54841630125902, 25.150173299779915]]}}, {"type": "Feature", "properties": {"id": "osm-135871686-0-view-4", "osmWay": 135871686, "name": "", "kind": "service", "width": 1.28, "widthSource": "estimated by road class", "displayRole": "landmark-access"}, "geometry": {"type": "LineString", "coordinates": [[121.54877189851382, 25.136409900907296], [121.54868270150463, 25.136153899065757], [121.54867910124989, 25.13605569961822]]}}, {"type": "Feature", "properties": {"id": "osm-1370285668-0-view-1", "osmWay": 1370285668, "name": "", "kind": "footway", "width": 0.576, "widthSource": "estimated by road class", "displayRole": "landmark-access"}, "geometry": {"type": "LineString", "coordinates": [[121.5465756997017, 25.15533669977542], [121.54658200092277, 25.155341399065758]]}}, {"type": "Feature", "properties": {"id": "osm-1370285671-0-view-1", "osmWay": 1370285671, "name": "環七星山人車分道陽金公路段", "kind": "footway", "width": 0.576, "widthSource": "estimated by road class", "displayRole": "landmark-access"}, "geometry": {"type": "LineString", "coordinates": [[121.5465756997017, 25.15533669977542], [121.54650240149192, 25.155417300745597]]}}, {"type": "Feature", "properties": {"id": "osm-262794533-0-view-0", "osmWay": 262794533, "name": "仰德大道三段", "kind": "primary", "width": 3.84, "widthSource": "estimated by road class", "displayRole": "main"}, "geometry": {"type": "LineString", "coordinates": [[121.54809090148981, 25.12859479861211], [121.54828619902983, 25.128292398998383], [121.54839679910387, 25.128117699932627], [121.54858310065852, 25.127805699618218], [121.54890899968785, 25.127234898661516], [121.54926909958684, 25.126418999115163], [121.54948120141671, 25.126088799577794], [121.54962309982942, 25.125877499946103], [121.54979610121815, 25.12559699947449], [121.54984763974869, 25.125499998710925]]}}, {"type": "Feature", "properties": {"id": "osm-262794534-0-view-0", "osmWay": 262794534, "name": "仰德大道四段", "kind": "primary", "width": 3.84, "widthSource": "estimated by road class", "displayRole": "main"}, "geometry": {"type": "LineString", "coordinates": [[121.54609150109911, 25.135657700044916], [121.54600929993379, 25.13527480052102], [121.54597720153849, 25.135135200157205], [121.54596590151411, 25.135085899717033], [121.54590010150932, 25.13479330011678], [121.54584469913948, 25.1344941989894], [121.54582510085349, 25.134246500911786], [121.54582969962851, 25.134166801060008], [121.54583720093449, 25.13403609959127], [121.5458728003527, 25.13385089870643], [121.54589959914819, 25.1337524999461], [121.54608809930801, 25.133234199663132], [121.54630460144924, 25.13270049895796], [121.54650970123325, 25.132157500732124], [121.54661039983147, 25.131831801172297], [121.5468670009341, 25.131134501158822], [121.54696440007405, 25.130879900121272], [121.54709310065365, 25.130571498666008], [121.54732920108087, 25.130029999496944], [121.54769130112138, 25.129322899469997], [121.54775569947661, 25.129197099411606], [121.54804029945963, 25.128690101006107], [121.54809090148981, 25.12859479861211]]}}, {"type": "Feature", "properties": {"id": "osm-262794535-0-view-0", "osmWay": 262794535, "name": "格致路", "kind": "primary", "width": 3.84, "widthSource": "estimated by road class", "displayRole": "main"}, "geometry": {"type": "LineString", "coordinates": [[121.54912690037766, 25.146795099546353], [121.54915609934298, 25.146737298836687], [121.54919920006716, 25.14667420089831], [121.54922949988557, 25.146624299712542], [121.54925810035894, 25.146574401333993]]}}, {"type": "Feature", "properties": {"id": "osm-262794536-0-view-0", "osmWay": 262794536, "name": "陽明路一段", "kind": "primary", "width": 3.84, "widthSource": "estimated by road class", "displayRole": "main"}, "geometry": {"type": "LineString", "coordinates": [[121.55006919961214, 25.151233598917536], [121.55001509966003, 25.15111090083992], [121.54997199893585, 25.150869100736614], [121.54997990027013, 25.150645398796264], [121.54997950024182, 25.150430300992635], [121.5499741014102, 25.150282200359324], [121.54996839868109, 25.150177900817464], [121.54995600090461, 25.150124998710925], [121.54991640120335, 25.150057600107797], [121.5498605988052, 25.149978001316025], [121.54979300022353, 25.149913101140857], [121.54965130027448, 25.149808501226197], [121.5496064009734, 25.149767201369926], [121.54954649906037, 25.149690800004493], [121.54947000062414, 25.14957739944754], [121.54944039852953, 25.14945579899389], [121.54940860093072, 25.149080201055515]]}}, {"type": "Feature", "properties": {"id": "osm-262794537-0-view-0", "osmWay": 262794537, "name": "湖山路一段", "kind": "primary", "width": 3.84, "widthSource": "estimated by road class", "displayRole": "main"}, "geometry": {"type": "LineString", "coordinates": [[121.5461534992845, 25.15222679982483], [121.54658429875977, 25.15224529942059], [121.54674390075076, 25.152255899492456], [121.54703309950881, 25.152322599097197], [121.54707309923837, 25.15233349954186], [121.54728410021515, 25.152382901042042]]}}, {"type": "Feature", "properties": {"id": "osm-1370309944-0-view-0", "osmWay": 1370309944, "name": "", "kind": "footway", "width": 0.576, "widthSource": "estimated by road class", "displayRole": "landmark-access"}, "geometry": {"type": "LineString", "coordinates": [[121.54621660142398, 25.155226100826447], [121.54617840027127, 25.15519160006288]]}}, {"type": "Feature", "properties": {"id": "osm-1370309945-0-view-0", "osmWay": 1370309945, "name": "", "kind": "footway", "width": 0.576, "widthSource": "estimated by road class", "displayRole": "landmark-access"}, "geometry": {"type": "LineString", "coordinates": [[121.54640000044765, 25.155421199977543], [121.54635219861562, 25.155384099726014], [121.54621340119753, 25.1552687004267], [121.5462087000897, 25.155247300970178], [121.54621660142398, 25.155226100826447]]}}, {"type": "Feature", "properties": {"id": "osm-262964938-0-view-0", "osmWay": 262964938, "name": "陽明路一段", "kind": "primary", "width": 3.84, "widthSource": "estimated by road class", "displayRole": "main"}, "geometry": {"type": "LineString", "coordinates": [[121.54940860093072, 25.149080201055515], [121.54937729949104, 25.148864999384656], [121.54935940055012, 25.148672499721524], [121.54936910046128, 25.14844410129806], [121.54920150100517, 25.14804310080399], [121.54911849978323, 25.14781049996856], [121.54908179951194, 25.147452301194754], [121.54904620009373, 25.147119999047792], [121.54905050117326, 25.14700740135645], [121.54907579908735, 25.146913000080847], [121.54912690037766, 25.146795099546353]]}}, {"type": "Feature", "properties": {"id": "osm-262965038-0-view-0", "osmWay": 262965038, "name": "湖山路一段", "kind": "primary", "width": 3.84, "widthSource": "estimated by road class", "displayRole": "main"}, "geometry": {"type": "LineString", "coordinates": [[121.54728410021515, 25.152382901042042], [121.54754070131777, 25.152444499923643], [121.54785680120413, 25.152465200381783], [121.54813519919792, 25.152467600556953], [121.54844310005451, 25.15243069961822], [121.54857090134568, 25.152343599928134], [121.54859859942961, 25.152329400997125], [121.54876910141668, 25.152242000934244], [121.54887380029795, 25.152181901109415], [121.54889649957856, 25.15216540025602], [121.54891000130912, 25.152149699461013], [121.54897470046082, 25.15205110138789], [121.54903219910302, 25.151952399447538], [121.54906110037287, 25.151895199483473], [121.54915710096424, 25.151746399851778], [121.54919470052397, 25.15166509988322], [121.54924100147461, 25.15158570040424], [121.5493465004125, 25.151421098917535], [121.54952290049133, 25.151353599254403], [121.54991240092029, 25.151266300251528], [121.55006919961214, 25.151233598917536]]}}, {"type": "Feature", "properties": {"id": "osm-262965712-0-view-0", "osmWay": 262965712, "name": "菁山路", "kind": "tertiary", "width": 2.56, "widthSource": "estimated by road class", "displayRole": "main"}, "geometry": {"type": "LineString", "coordinates": [[121.55750000137871, 25.144585268091987], [121.55747470036363, 25.14446609869296], [121.55730819865961, 25.143841000440172]]}}, {"type": "Feature", "properties": {"id": "osm-262967776-0-view-0", "osmWay": 262967776, "name": "菁山路", "kind": "tertiary", "width": 2.56, "widthSource": "estimated by road class", "displayRole": "main"}, "geometry": {"type": "LineString", "coordinates": [[121.55638449919086, 25.14228259898491], [121.55597570127239, 25.142351698764823], [121.55570539997555, 25.142370799106182], [121.55555939894695, 25.142355600803988], [121.55515020100019, 25.14231099965415], [121.55480950092354, 25.142215399694575], [121.55459539895215, 25.142208499541862], [121.5543486000935, 25.142221600848906], [121.55412000097228, 25.142254299375676], [121.55386459995457, 25.142375501203738], [121.55363669855713, 25.142377901378907], [121.55337800118214, 25.142343599928136], [121.55313029993407, 25.14225150057492], [121.55291599949902, 25.142155900615343], [121.55279579874566, 25.142007600669242], [121.55273439905223, 25.1419083990433], [121.5527298002772, 25.141680199932626], [121.55280120067827, 25.14160789991915], [121.55288339874261, 25.1415417], [121.5529245985571, 25.141453901311536], [121.55291350009736, 25.141356600175172], [121.55281160141423, 25.141242500619835], [121.55260239901433, 25.141116200875853], [121.55235830112201, 25.140977799196012], [121.55226979873562, 25.140871001226195], [121.55179890029895, 25.140198399155587], [121.55168809866026, 25.1400892010106], [121.55145269905783, 25.139955599681098], [121.54995770024966, 25.139285400592886], [121.54975389978239, 25.139188298769312], [121.54967380109142, 25.13916109959127], [121.54919599984072, 25.138998901086957], [121.54788169908991, 25.138484098603126], [121.5473209989501, 25.138230999429574], [121.54668930153852, 25.13795399956432], [121.54655389970954, 25.13790380081297]]}}, {"type": "Feature", "properties": {"id": "osm-444619200-0-view-0", "osmWay": 444619200, "name": "凱旋路", "kind": "residential", "width": 1.6, "widthSource": "estimated by road class", "displayRole": "main"}, "geometry": {"type": "LineString", "coordinates": [[121.54207250043876, 25.13654890052551], [121.54318269992582, 25.13547249916008]]}}, {"type": "Feature", "properties": {"id": "osm-262967977-0-view-0", "osmWay": 262967977, "name": "菁山路", "kind": "tertiary", "width": 2.56, "widthSource": "estimated by road class", "displayRole": "main"}, "geometry": {"type": "LineString", "coordinates": [[121.55750000137871, 25.14239795898311], [121.55714070153634, 25.142298100467123], [121.55664329889866, 25.142271100601867], [121.55638449919086, 25.14228259898491]]}}, {"type": "Feature", "properties": {"id": "osm-263156309-0-view-0", "osmWay": 263156309, "name": "格致路", "kind": "primary", "width": 3.84, "widthSource": "estimated by road class", "displayRole": "main"}, "geometry": {"type": "LineString", "coordinates": [[121.54655389970954, 25.13790380081297], [121.54654669920004, 25.137769200112288], [121.54652819866614, 25.137652099636185], [121.54650900040846, 25.13753049918254], [121.5464403009737, 25.13720979928584], [121.5463926014745, 25.136989300386276], [121.54633460047117, 25.136706001113907]]}}, {"type": "Feature", "properties": {"id": "osm-264073859-0-view-0", "osmWay": 264073859, "name": "格致路", "kind": "primary", "width": 3.84, "widthSource": "estimated by road class", "displayRole": "main"}, "geometry": {"type": "LineString", "coordinates": [[121.54643830083218, 25.13898270060636], [121.5464897990498, 25.138825701077973], [121.54653720085352, 25.138609898661517], [121.54654059954362, 25.138515500193137], [121.54654690076468, 25.138335099658644], [121.54654640150456, 25.13822569939364], [121.54655389970954, 25.13790380081297]]}}, {"type": "Feature", "properties": {"id": "osm-295177396-0-view-0", "osmWay": 295177396, "name": "華岡路", "kind": "service", "width": 1.28, "widthSource": "estimated by road class", "displayRole": "main"}, "geometry": {"type": "LineString", "coordinates": [[121.54035810005941, 25.137586899088216], [121.53971109923938, 25.137508299667626], [121.53966229888708, 25.137489000013474], [121.5388996991897, 25.137189300947718], [121.53876110023526, 25.137098200965685], [121.53867780131785, 25.13702030054348], [121.538533099606, 25.13682979962271], [121.53848690098819, 25.13678099886813], [121.53827380063807, 25.136582898796263]]}}, {"type": "Feature", "properties": {"id": "osm-327370211-0-view-0", "osmWay": 327370211, "name": "新園街", "kind": "residential", "width": 1.6, "widthSource": "estimated by road class", "displayRole": "main"}, "geometry": {"type": "LineString", "coordinates": [[121.55132109904825, 25.150365701190264], [121.55164559952902, 25.15031740012127], [121.55176359857622, 25.15029520060636], [121.55185370107583, 25.150309200224577], [121.55208729900038, 25.150381098805248], [121.55219379955953, 25.15041990023356], [121.55232130005423, 25.150461598715417], [121.55249650004814, 25.150533500103307], [121.5525327010593, 25.15056720080848], [121.55254050006077, 25.15075710098365], [121.55255519877525, 25.150797499721524], [121.55258810032815, 25.150858200291953], [121.55268050066478, 25.150978298881604], [121.55288929993537, 25.151181300363817], [121.55310630133673, 25.15137090016619], [121.55321589978949, 25.15147519970805], [121.55327619862985, 25.15150769892203], [121.55344129868428, 25.151596901221705], [121.55353359978908, 25.151639500821954], [121.55358529957134, 25.151673900525513], [121.55365229966105, 25.151728801374418], [121.55371889972245, 25.151773399717033], [121.55374500079415, 25.151792601118398], [121.55396149983439, 25.151891900997125], [121.55421029883455, 25.152008198607618], [121.55430989968067, 25.15214009876033], [121.55440990055511, 25.15226569950593], [121.55449020081073, 25.15233109936669], [121.5547669986913, 25.152541301374416], [121.55485390096447, 25.152609999721523], [121.5548979009771, 25.152687400458138], [121.55500799869, 25.152903399380165], [121.55522919883808, 25.153202800880344], [121.55533910118832, 25.15333390097467], [121.55537580145962, 25.153403399380167]]}}, {"type": "Feature", "properties": {"id": "osm-704408468-0-view-0", "osmWay": 704408468, "name": "湖山路一段", "kind": "tertiary", "width": 2.56, "widthSource": "estimated by road class", "displayRole": "main"}, "geometry": {"type": "LineString", "coordinates": [[121.54429150086432, 25.151909401221705], [121.54433209908585, 25.151910599905676], [121.54497039851498, 25.151930300992635], [121.54510069920781, 25.151932998733383]]}}, {"type": "Feature", "properties": {"id": "osm-979722285-0-view-0", "osmWay": 979722285, "name": "", "kind": "footway", "width": 0.576, "widthSource": "estimated by road class", "displayRole": "landmark-access"}, "geometry": {"type": "LineString", "coordinates": [[121.54801350066415, 25.150359999721523], [121.5480390001429, 25.15037680094772], [121.54804479900282, 25.150394301172298], [121.54804830002575, 25.150424599523895]]}}, {"type": "Feature", "properties": {"id": "osm-1198733593-0-view-0", "osmWay": 1198733593, "name": "", "kind": "footway", "width": 0.576, "widthSource": "estimated by road class", "displayRole": "landmark-access"}, "geometry": {"type": "LineString", "coordinates": [[121.54734119882905, 25.1541906006917], [121.54727720050212, 25.154003799690084]]}}, {"type": "Feature", "properties": {"id": "osm-1456657263-0-view-0", "osmWay": 1456657263, "name": "", "kind": "footway", "width": 0.576, "widthSource": "estimated by road class", "displayRole": "landmark-access"}, "geometry": {"type": "LineString", "coordinates": [[121.54568149999473, 25.134160700965683], [121.54571839872969, 25.13416220002246], [121.54582969962851, 25.134166801060008]]}}, {"type": "Feature", "properties": {"id": "osm-979722286-0-view-0", "osmWay": 979722286, "name": "", "kind": "footway", "width": 0.576, "widthSource": "estimated by road class", "displayRole": "landmark-access"}, "geometry": {"type": "LineString", "coordinates": [[121.54797649959637, 25.150340399694574], [121.54801350066415, 25.150359999721523]]}}, {"type": "Feature", "properties": {"id": "osm-446961776-0-view-0", "osmWay": 446961776, "name": "", "kind": "steps", "width": 0.48, "widthSource": "estimated by road class", "displayRole": "landmark-access"}, "geometry": {"type": "LineString", "coordinates": [[121.54510460025904, 25.152224700022458], [121.54504419908588, 25.15202080022907]]}}, {"type": "Feature", "properties": {"id": "osm-330745400-0-view-0", "osmWay": 330745400, "name": "新園街", "kind": "tertiary", "width": 2.56, "widthSource": "estimated by road class", "displayRole": "main"}, "geometry": {"type": "LineString", "coordinates": [[121.5501859985744, 25.15118770083094], [121.55006919961214, 25.151233598917536]]}}, {"type": "Feature", "properties": {"id": "osm-330745403-0-view-0", "osmWay": 330745403, "name": "新園街", "kind": "tertiary", "width": 2.56, "widthSource": "estimated by road class", "displayRole": "main"}, "geometry": {"type": "LineString", "coordinates": [[121.5512426004705, 25.150321599726016], [121.55118829895375, 25.150401599950595]]}}, {"type": "Feature", "properties": {"id": "osm-330745406-0-view-0", "osmWay": 330745406, "name": "新園街", "kind": "tertiary", "width": 2.56, "widthSource": "estimated by road class", "displayRole": "main"}, "geometry": {"type": "LineString", "coordinates": [[121.55118829895375, 25.150401599950595], [121.55110770100264, 25.150515999878728], [121.55101549912968, 25.15062410039975], [121.5508401006721, 25.1507836994161], [121.5501859985744, 25.15118770083094]]}}, {"type": "Feature", "properties": {"id": "osm-330745410-0-view-0", "osmWay": 330745410, "name": "新園街", "kind": "unclassified", "width": 1.6, "widthSource": "estimated by road class", "displayRole": "main"}, "geometry": {"type": "LineString", "coordinates": [[121.55132109904825, 25.150365701190264], [121.55124710001368, 25.150422800094322], [121.55116380109627, 25.15058219979788], [121.55103249878216, 25.150736599838304], [121.55078829855701, 25.150927300071864], [121.55063020054843, 25.151003698630074], [121.55056710150994, 25.15104250005839], [121.55053860026841, 25.151121200538988], [121.55051329925332, 25.151336699775424], [121.55049059997272, 25.151354598625584]]}}, {"type": "Feature", "properties": {"id": "osm-135930152-0-view-0", "osmWay": 135930152, "name": "菁山路72巷20弄", "kind": "service", "width": 1.28, "widthSource": "estimated by road class", "displayRole": "landmark-access"}, "geometry": {"type": "LineString", "coordinates": [[121.55221959983474, 25.139280799555337], [121.55210250007599, 25.13926679993712], [121.55197029847345, 25.13922489933525], [121.55132439850652, 25.139035400592885], [121.55127459963396, 25.139041899312794], [121.55115199871075, 25.13927049985627]]}}, {"type": "Feature", "properties": {"id": "osm-454820751-0-view-0", "osmWay": 454820751, "name": "", "kind": "steps", "width": 0.48, "widthSource": "estimated by road class", "displayRole": "landmark-access"}, "geometry": {"type": "LineString", "coordinates": [[121.53817959862356, 25.154051999699067], [121.53821930065766, 25.154141900997125], [121.53818250115452, 25.15416239933525]]}}, {"type": "Feature", "properties": {"id": "osm-1371159099-0-view-0", "osmWay": 1371159099, "name": "中興路", "kind": "unclassified", "width": 1.6, "widthSource": "estimated by road class", "displayRole": "main"}, "geometry": {"type": "LineString", "coordinates": [[121.53889039930685, 25.159066998688466], [121.5389469986606, 25.159113000642293], [121.53900010009244, 25.15914500017068], [121.5390423015282, 25.159201501136366], [121.5390658008654, 25.15925169988771]]}}, {"type": "Feature", "properties": {"id": "osm-1371159100-0-view-0", "osmWay": 1371159100, "name": "中興路", "kind": "unclassified", "width": 1.6, "widthSource": "estimated by road class", "displayRole": "main"}, "geometry": {"type": "LineString", "coordinates": [[121.5390658008654, 25.15925169988771], [121.53907649929684, 25.15933269948347], [121.53893609866452, 25.15953259898491], [121.53883379995308, 25.159626598827703], [121.53863670073518, 25.159742800992635], [121.53835099989907, 25.159897900031442], [121.53786939992996, 25.1601583990433], [121.53766670031578, 25.16030950059738], [121.5375687988147, 25.160349801082464], [121.53704650139224, 25.160398099344235], [121.53696959982672, 25.1604160992544], [121.5369418986418, 25.160442899806863]]}}, {"type": "Feature", "properties": {"id": "osm-380477534-0-view-0", "osmWay": 380477534, "name": "福壽橋", "kind": "primary", "width": 3.84, "widthSource": "estimated by road class", "displayRole": "landmark-access"}, "geometry": {"type": "LineString", "coordinates": [[121.54925810035894, 25.146574401333993], [121.54945649889358, 25.14612029942059]]}}, {"type": "Feature", "properties": {"id": "osm-338995798-0-view-0", "osmWay": 338995798, "name": "", "kind": "service", "width": 1.28, "widthSource": "estimated by road class", "displayRole": "landmark-access"}, "geometry": {"type": "LineString", "coordinates": [[121.55179509847954, 25.155548100467122], [121.55161040013911, 25.155464798948977], [121.5514957005502, 25.155386101275603], [121.55127949920545, 25.155264700134747], [121.55109640097825, 25.155196299353218], [121.55089689848953, 25.1551517010106], [121.55062439858749, 25.155106998800754], [121.55043310133053, 25.155068699865254], [121.5503460005937, 25.155039998823213], [121.55021379899115, 25.154948999901187], [121.55011020096298, 25.154813599142113], [121.55000919846728, 25.154605499743983], [121.54986400059629, 25.154309899222962], [121.54979610121815, 25.154178599815847], [121.54971309999621, 25.154014001136364], [121.54940370135922, 25.153513100017967], [121.54937230068772, 25.15347439964966], [121.5493404007561, 25.15343389985178]]}}, {"type": "Feature", "properties": {"id": "osm-135930156-0-view-0", "osmWay": 135930156, "name": "", "kind": "residential", "width": 1.6, "widthSource": "estimated by road class", "displayRole": "landmark-access"}, "geometry": {"type": "LineString", "coordinates": [[121.54790650084486, 25.150087800206613], [121.54800439924495, 25.15012970080848]]}}, {"type": "Feature", "properties": {"id": "osm-441558524-0-view-10", "osmWay": 441558524, "name": "天母古道親山步道", "kind": "steps", "width": 0.48, "widthSource": "estimated by road class", "displayRole": "landmark-access"}, "geometry": {"type": "LineString", "coordinates": [[121.54331250135854, 25.140920099546353], [121.54344910017144, 25.140912800768056], [121.54360019923519, 25.14091369907923]]}}, {"type": "Feature", "properties": {"id": "osm-1300202745-0-view-0", "osmWay": 1300202745, "name": "", "kind": "steps", "width": 0.48, "widthSource": "estimated by road class", "displayRole": "landmark-access"}, "geometry": {"type": "LineString", "coordinates": [[121.53925459872072, 25.159595500417716], [121.53924889909261, 25.159616400188646], [121.53925560034197, 25.159632499609234], [121.53927500016431, 25.15964519948347], [121.53929950112278, 25.159650698832195], [121.53932170114325, 25.159645800229068]]}}, {"type": "Feature", "properties": {"id": "osm-1300202749-0-view-0", "osmWay": 1300202749, "name": "", "kind": "footway", "width": 0.576, "widthSource": "estimated by road class", "displayRole": "landmark-access"}, "geometry": {"type": "LineString", "coordinates": [[121.5391281990791, 25.159383900413225], [121.53919530150164, 25.159424299151095], [121.53921440052748, 25.159452200134748], [121.53924319946451, 25.159493800363816], [121.53919189971054, 25.159548100467124], [121.53921840081054, 25.159574199213978], [121.53923580049134, 25.159579998935502], [121.53925459872072, 25.159595500417716]]}}, {"type": "Feature", "properties": {"id": "osm-1300202750-0-view-0", "osmWay": 1300202750, "name": "", "kind": "footway", "width": 0.576, "widthSource": "estimated by road class", "displayRole": "landmark-access"}, "geometry": {"type": "LineString", "coordinates": [[121.53928679944883, 25.159014801194754], [121.53924329869633, 25.158943699865254], [121.5392109987364, 25.158921800723142], [121.53916279997705, 25.15888909938915], [121.5390441993369, 25.158852100197628], [121.5390181013662, 25.158829400997124]]}}, {"type": "Feature", "properties": {"id": "osm-1300202752-0-view-1", "osmWay": 1300202752, "name": "", "kind": "footway", "width": 0.576, "widthSource": "estimated by road class", "displayRole": "landmark-access"}, "geometry": {"type": "LineString", "coordinates": [[121.53898550060978, 25.15880749904779], [121.5390181013662, 25.158829400997124]]}}, {"type": "Feature", "properties": {"id": "osm-1456657304-0-view-0", "osmWay": 1456657304, "name": "", "kind": "footway", "width": 0.576, "widthSource": "estimated by road class", "displayRole": "landmark-access"}, "geometry": {"type": "LineString", "coordinates": [[121.54564860154284, 25.13455859947898], [121.54558890119445, 25.134547800094325], [121.54541180029085, 25.134515601253145]]}}, {"type": "Feature", "properties": {"id": "osm-1456657305-0-view-1", "osmWay": 1456657305, "name": "", "kind": "footway", "width": 0.576, "widthSource": "estimated by road class", "displayRole": "landmark-access"}, "geometry": {"type": "LineString", "coordinates": [[121.54564860154284, 25.13455859947898], [121.5456617001441, 25.13425819860762], [121.54567879902842, 25.13424689953737], [121.54568149999473, 25.134160700965683]]}}, {"type": "Feature", "properties": {"id": "osm-372366232-0-view-0", "osmWay": 372366232, "name": "光華路", "kind": "residential", "width": 1.6, "widthSource": "estimated by road class", "displayRole": "main"}, "geometry": {"type": "LineString", "coordinates": [[121.54439600128194, 25.137842199124147], [121.54400890102282, 25.137712000148223], [121.54377810019541, 25.137637900705176]]}}, {"type": "Feature", "properties": {"id": "osm-372366233-0-view-0", "osmWay": 372366233, "name": "光華路", "kind": "residential", "width": 1.6, "widthSource": "estimated by road class", "displayRole": "main"}, "geometry": {"type": "LineString", "coordinates": [[121.54377810019541, 25.137637900705176], [121.54322599911367, 25.13746050109145], [121.54315699888244, 25.13742450127111], [121.54313839911671, 25.13741479951042], [121.54300199876747, 25.1372989987783], [121.54281890054027, 25.137146100601868], [121.542537900812, 25.136952500507547], [121.54207250043876, 25.13654890052551]]}}]}